<?xml version="1.0" encoding="UTF-8"?>
<gpx creator="Garmin Connect" version="1.1"
  xsi:schemaLocation="http://www.topografix.com/GPX/1/1 http://www.topografix.com/GPX/11.xsd"
  xmlns:ns3="http://www.garmin.com/xmlschemas/TrackPointExtension/v1"
  xmlns="http://www.topografix.com/GPX/1/1"
  xmlns:xsi="http://www.w3.org/2001/XMLSchema-instance" xmlns:ns2="http://www.garmin.com/xmlschemas/GpxExtensions/v3">
  <metadata>
    <name>Viote-Monte Bondone</name>
    <link href="connect.garmin.com">
      <text>Garmin Connect</text>
    </link>
    <time>2026-05-19T12:22:15.000Z</time>
  </metadata>
  <trk>
    <name>Viote-Monte Bondone</name>
    <trkseg>
      <trkpt lat="46.02070592343807" lon="11.042719976976514">
        <ele>1569.69</ele>
      </trkpt>
      <trkpt lat="46.020911866799" lon="11.042693490162492">
        <ele>1569.94</ele>
      </trkpt>
      <trkpt lat="46.021117977797985" lon="11.042666919529438">
        <ele>1570.37</ele>
      </trkpt>
      <trkpt lat="46.02117992006242" lon="11.042656945064664">
        <ele>1570.72</ele>
      </trkpt>
      <trkpt lat="46.02123599499464" lon="11.042710924521089">
        <ele>1571.01</ele>
      </trkpt>
      <trkpt lat="46.02124194614589" lon="11.042836988344789">
        <ele>1571.15</ele>
      </trkpt>
      <trkpt lat="46.02133599109948" lon="11.04281896725297">
        <ele>1571.26</ele>
      </trkpt>
      <trkpt lat="46.02132995612919" lon="11.04275593534112">
        <ele>1571.22</ele>
      </trkpt>
      <trkpt lat="46.02137999609113" lon="11.042737998068333">
        <ele>1571.09</ele>
      </trkpt>
      <trkpt lat="46.02142894640565" lon="11.04264797642827">
        <ele>1570.8</ele>
      </trkpt>
      <trkpt lat="46.02144797332585" lon="11.042557954788208">
        <ele>1570.41</ele>
      </trkpt>
      <trkpt lat="46.0214539244771" lon="11.042440943419933">
        <ele>1569.93</ele>
      </trkpt>
      <trkpt lat="46.0214229952544" lon="11.04232493788004">
        <ele>1569.39</ele>
      </trkpt>
      <trkpt lat="46.02132392115891" lon="11.042180936783552">
        <ele>1568.8</ele>
      </trkpt>
      <trkpt lat="46.02127396501601" lon="11.042100973427296">
        <ele>1568.23</ele>
      </trkpt>
      <trkpt lat="46.021141950041056" lon="11.042126957327127">
        <ele>1567.77</ele>
      </trkpt>
      <trkpt lat="46.021011946722865" lon="11.042171968147159">
        <ele>1567.36</ele>
      </trkpt>
      <trkpt lat="46.02084296755493" lon="11.042199963703752">
        <ele>1566.98</ele>
      </trkpt>
      <trkpt lat="46.020686980336905" lon="11.042243968695402">
        <ele>1566.62</ele>
      </trkpt>
      <trkpt lat="46.02051297202706" lon="11.041947919875383">
        <ele>1566.32</ele>
      </trkpt>
      <trkpt lat="46.02040979079902" lon="11.041772738099098">
        <ele>1566.06</ele>
      </trkpt>
      <trkpt lat="46.02030694484711" lon="11.041597975417972">
        <ele>1565.75</ele>
      </trkpt>
      <trkpt lat="46.02023192681372" lon="11.04144492186606">
        <ele>1565.48</ele>
      </trkpt>
      <trkpt lat="46.02012597955763" lon="11.041201930493116">
        <ele>1565.24</ele>
      </trkpt>
      <trkpt lat="46.01996999233961" lon="11.041012918576598">
        <ele>1565.1</ele>
      </trkpt>
      <trkpt lat="46.01977343671024" lon="11.040829438716173">
        <ele>1565.05</ele>
      </trkpt>
      <trkpt lat="46.0195769648999" lon="11.040645958855748">
        <ele>1565.08</ele>
      </trkpt>
      <trkpt lat="46.01940798573196" lon="11.040465999394655">
        <ele>1565.13</ele>
      </trkpt>
      <trkpt lat="46.01927085779607" lon="11.040272796526551">
        <ele>1565.2</ele>
      </trkpt>
      <trkpt lat="46.01913398131728" lon="11.040079928934574">
        <ele>1565.27</ele>
      </trkpt>
      <trkpt lat="46.01900297217071" lon="11.039979932829738">
        <ele>1565.38</ele>
      </trkpt>
      <trkpt lat="46.01889694109559" lon="11.039943974465132">
        <ele>1565.52</ele>
      </trkpt>
      <trkpt lat="46.01878495886922" lon="11.039872979745269">
        <ele>1565.69</ele>
      </trkpt>
      <trkpt lat="46.01853492669761" lon="11.039782958105206">
        <ele>1565.78</ele>
      </trkpt>
      <trkpt lat="46.01837893947959" lon="11.03968396782875">
        <ele>1565.95</ele>
      </trkpt>
      <trkpt lat="46.01829193532467" lon="11.039584977552295">
        <ele>1566.19</ele>
      </trkpt>
      <trkpt lat="46.018172996118665" lon="11.03942396119237">
        <ele>1566.51</ele>
      </trkpt>
      <trkpt lat="46.018129996955395" lon="11.03936092928052">
        <ele>1566.88</ele>
      </trkpt>
      <trkpt lat="46.017979960888624" lon="11.039073932915926">
        <ele>1567.58</ele>
      </trkpt>
      <trkpt lat="46.017892956733704" lon="11.038811998441815">
        <ele>1568.35</ele>
      </trkpt>
      <trkpt lat="46.017767982557416" lon="11.038632960990071">
        <ele>1569.03</ele>
      </trkpt>
      <trkpt lat="46.01756195537746" lon="11.038461970165372">
        <ele>1569.66</ele>
      </trkpt>
      <trkpt lat="46.017443938180804" lon="11.038425927981734">
        <ele>1570.11</ele>
      </trkpt>
      <trkpt lat="46.0173059720546" lon="11.038327943533659">
        <ele>1570.46</ele>
      </trkpt>
      <trkpt lat="46.017187954857945" lon="11.03820196352899">
        <ele>1570.7</ele>
      </trkpt>
      <trkpt lat="46.01697597652674" lon="11.038075983524323">
        <ele>1570.81</ele>
      </trkpt>
      <trkpt lat="46.0167829412967" lon="11.038066931068897">
        <ele>1570.75</ele>
      </trkpt>
      <trkpt lat="46.01661999709904" lon="11.037895940244198">
        <ele>1570.68</ele>
      </trkpt>
      <trkpt lat="46.01645193994045" lon="11.037851935252547">
        <ele>1570.44</ele>
      </trkpt>
      <trkpt lat="46.016344986855984" lon="11.03770692832768">
        <ele>1570.12</ele>
      </trkpt>
      <trkpt lat="46.01625798270106" lon="11.03755597025156">
        <ele>1569.73</ele>
      </trkpt>
      <trkpt lat="46.01616494357586" lon="11.037356983870268">
        <ele>1569.25</ele>
      </trkpt>
      <trkpt lat="46.016026977449656" lon="11.037293951958418">
        <ele>1568.62</ele>
      </trkpt>
      <trkpt lat="46.01577795110643" lon="11.037150956690311">
        <ele>1567.89</ele>
      </trkpt>
      <trkpt lat="46.01560293696821" lon="11.037006955593824">
        <ele>1567.21</ele>
      </trkpt>
      <trkpt lat="46.01541593670845" lon="11.036907965317369">
        <ele>1566.53</ele>
      </trkpt>
      <trkpt lat="46.0152355581522" lon="11.03693495504558">
        <ele>1565.99</ele>
      </trkpt>
      <trkpt lat="46.01505492813885" lon="11.036961944773793">
        <ele>1565.43</ele>
      </trkpt>
      <trkpt lat="46.014880081638694" lon="11.037015924230218">
        <ele>1564.89</ele>
      </trkpt>
      <trkpt lat="46.01470498368144" lon="11.037069987505674">
        <ele>1564.32</ele>
      </trkpt>
      <trkpt lat="46.014539524912834" lon="11.037051966413856">
        <ele>1563.84</ele>
      </trkpt>
      <trkpt lat="46.014373982325196" lon="11.037033945322037">
        <ele>1563.45</ele>
      </trkpt>
      <trkpt lat="46.01419393904507" lon="11.03699798695743">
        <ele>1563.1</ele>
      </trkpt>
      <trkpt lat="46.014093942940235" lon="11.036970997229218">
        <ele>1562.82</ele>
      </trkpt>
      <trkpt lat="46.014093942940235" lon="11.037042997777462">
        <ele>1562.64</ele>
      </trkpt>
      <trkpt lat="46.01394994184375" lon="11.037024976685643">
        <ele>1562.56</ele>
      </trkpt>
      <trkpt lat="46.01384994573891" lon="11.037006955593824">
        <ele>1562.64</ele>
      </trkpt>
      <trkpt lat="46.01382496766746" lon="11.036970997229218">
        <ele>1562.91</ele>
      </trkpt>
      <trkpt lat="46.01378791965544" lon="11.036907965317369">
        <ele>1563.38</ele>
      </trkpt>
      <trkpt lat="46.01370099931955" lon="11.036826996132731">
        <ele>1564.04</ele>
      </trkpt>
      <trkpt lat="46.013600919395685" lon="11.036800928413868">
        <ele>1564.89</ele>
      </trkpt>
      <trkpt lat="46.01350695826113" lon="11.036836970597506">
        <ele>1565.94</ele>
      </trkpt>
      <trkpt lat="46.013406962156296" lon="11.036880975589156">
        <ele>1567.31</ele>
      </trkpt>
      <trkpt lat="46.01331392303109" lon="11.036853985860944">
        <ele>1569.03</ele>
      </trkpt>
      <trkpt lat="46.01321996189654" lon="11.036871923133731">
        <ele>1570.99</ele>
      </trkpt>
      <trkpt lat="46.013126922771335" lon="11.03688994422555">
        <ele>1573.27</ele>
      </trkpt>
      <trkpt lat="46.013038996607065" lon="11.03688994422555">
        <ele>1575.83</ele>
      </trkpt>
      <trkpt lat="46.012932965531945" lon="11.036907965317369">
        <ele>1578.72</ele>
      </trkpt>
      <trkpt lat="46.01283992640674" lon="11.036926992237568">
        <ele>1581.83</ele>
      </trkpt>
      <trkpt lat="46.01277697831392" lon="11.036943923681974">
        <ele>1585.16</ele>
      </trkpt>
      <trkpt lat="46.01257748901844" lon="11.036800425499678">
        <ele>1588.91</ele>
      </trkpt>
      <trkpt lat="46.01237799972296" lon="11.036656927317381">
        <ele>1592.98</ele>
      </trkpt>
      <trkpt lat="46.01212855428457" lon="11.036513010039926">
        <ele>1597.36</ele>
      </trkpt>
      <trkpt lat="46.011878941208124" lon="11.036368925124407">
        <ele>1601.97</ele>
      </trkpt>
      <trkpt lat="46.0116230417043" lon="11.036225510761142">
        <ele>1606.76</ele>
      </trkpt>
      <trkpt lat="46.01136697456241" lon="11.036081928759813">
        <ele>1611.76</ele>
      </trkpt>
      <trkpt lat="46.011166982352734" lon="11.035991990938783">
        <ele>1616.73</ele>
      </trkpt>
      <trkpt lat="46.01091795600951" lon="11.035918984562159">
        <ele>1621.76</ele>
      </trkpt>
      <trkpt lat="46.0107559338212" lon="11.035884954035282">
        <ele>1626.57</ele>
      </trkpt>
      <trkpt lat="46.01059298962355" lon="11.035847989842296">
        <ele>1631.47</ele>
      </trkpt>
      <trkpt lat="46.01048092357814" lon="11.035802979022264">
        <ele>1636.28</ele>
      </trkpt>
      <trkpt lat="46.01036894135177" lon="11.035767942667007">
        <ele>1641.03</ele>
      </trkpt>
      <trkpt lat="46.01023198105395" lon="11.035677921026945">
        <ele>1645.79</ele>
      </trkpt>
      <trkpt lat="46.00999904796481" lon="11.035572979599237">
        <ele>1650.41</ele>
      </trkpt>
      <trkpt lat="46.009766114875674" lon="11.03546803817153">
        <ele>1654.99</ele>
      </trkpt>
      <trkpt lat="46.00953293032944" lon="11.035362929105759">
        <ele>1659.69</ele>
      </trkpt>
      <trkpt lat="46.009345510974526" lon="11.035268465057015">
        <ele>1664.38</ele>
      </trkpt>
      <trkpt lat="46.00915792398155" lon="11.03517391718924">
        <ele>1668.96</ele>
      </trkpt>
      <trkpt lat="46.00892792455852" lon="11.035048943012953">
        <ele>1673.55</ele>
      </trkpt>
      <trkpt lat="46.00871594622731" lon="11.034905947744846">
        <ele>1678.09</ele>
      </trkpt>
      <trkpt lat="46.00856599397957" lon="11.034824475646019">
        <ele>1682.38</ele>
      </trkpt>
      <trkpt lat="46.0084159579128" lon="11.03474291972816">
        <ele>1686.62</ele>
      </trkpt>
      <trkpt lat="46.00814798846841" lon="11.034563966095448">
        <ele>1691.01</ele>
      </trkpt>
      <trkpt lat="46.007947996258736" lon="11.034446954727173">
        <ele>1695.15</ele>
      </trkpt>
      <trkpt lat="46.007779939100146" lon="11.034329943358898">
        <ele>1699.3</ele>
      </trkpt>
      <trkpt lat="46.00762998685241" lon="11.034176973626018">
        <ele>1703.4</ele>
      </trkpt>
      <trkpt lat="46.007454972714186" lon="11.033997936174273">
        <ele>1707.53</ele>
      </trkpt>
      <trkpt lat="46.007386995479465" lon="11.03392492979765">
        <ele>1711.55</ele>
      </trkpt>
      <trkpt lat="46.00718398578465" lon="11.033786460757256">
        <ele>1715.61</ele>
      </trkpt>
      <trkpt lat="46.006980976089835" lon="11.033647991716862">
        <ele>1719.85</ele>
      </trkpt>
      <trkpt lat="46.00671292282641" lon="11.033475995063782">
        <ele>1724.17</ele>
      </trkpt>
      <trkpt lat="46.00660697557032" lon="11.033440958708525">
        <ele>1728.19</ele>
      </trkpt>
      <trkpt lat="46.00636993534863" lon="11.033179946243763">
        <ele>1732.73</ele>
      </trkpt>
      <trkpt lat="46.00625795312226" lon="11.033144993707538">
        <ele>1736.98</ele>
      </trkpt>
      <trkpt lat="46.00616994313896" lon="11.033144993707538">
        <ele>1741.29</ele>
      </trkpt>
      <trkpt lat="46.006100960075855" lon="11.033081961795688">
        <ele>1745.71</ele>
      </trkpt>
      <trkpt lat="46.00585796870291" lon="11.032918933779001">
        <ele>1750.6</ele>
      </trkpt>
      <trkpt lat="46.00557692348957" lon="11.032855985686183">
        <ele>1755.24</ele>
      </trkpt>
      <trkpt lat="46.005299566313624" lon="11.03269949555397">
        <ele>1759.93</ele>
      </trkpt>
      <trkpt lat="46.00502195768058" lon="11.032542921602726">
        <ele>1764.78</ele>
      </trkpt>
      <trkpt lat="46.00474409759045" lon="11.032412499189377">
        <ele>1769.36</ele>
      </trkpt>
      <trkpt lat="46.004465986043215" lon="11.032281992956996">
        <ele>1773.6</ele>
      </trkpt>
      <trkpt lat="46.00430698134005" lon="11.032209992408752">
        <ele>1777.69</ele>
      </trkpt>
      <trkpt lat="46.00414797663689" lon="11.032137991860509">
        <ele>1781.89</ele>
      </trkpt>
      <trkpt lat="46.00398595444858" lon="11.032092981040478">
        <ele>1786.02</ele>
      </trkpt>
      <trkpt lat="46.003867937251925" lon="11.03205693885684">
        <ele>1790.05</ele>
      </trkpt>
      <trkpt lat="46.00376098416746" lon="11.032002959400415">
        <ele>1794.01</ele>
      </trkpt>
      <trkpt lat="46.00364891812205" lon="11.031876979395747">
        <ele>1797.95</ele>
      </trkpt>
      <trkpt lat="46.00361798889935" lon="11.031850995495915">
        <ele>1801.76</ele>
      </trkpt>
      <trkpt lat="46.00336192175746" lon="11.031796932220459">
        <ele>1805.73</ele>
      </trkpt>
      <trkpt lat="46.00320308469236" lon="11.031778994947672">
        <ele>1809.57</ele>
      </trkpt>
      <trkpt lat="46.00304399617016" lon="11.031760973855853">
        <ele>1813.37</ele>
      </trkpt>
      <trkpt lat="46.00273797288537" lon="11.031706994399428">
        <ele>1817.35</ele>
      </trkpt>
      <trkpt lat="46.00245097652078" lon="11.031634993851185">
        <ele>1821.41</ele>
      </trkpt>
      <trkpt lat="46.002338994294405" lon="11.031580930575728">
        <ele>1825.17</ele>
      </trkpt>
      <trkpt lat="46.002188958227634" lon="11.031563999131322">
        <ele>1828.81</ele>
      </trkpt>
      <trkpt lat="46.001913947984576" lon="11.03145495057106">
        <ele>1832.64</ele>
      </trkpt>
      <trkpt lat="46.001752093434334" lon="11.031423518434167">
        <ele>1836.28</ele>
      </trkpt>
      <trkpt lat="46.001589987426996" lon="11.03139191865921">
        <ele>1839.78</ele>
      </trkpt>
      <trkpt lat="46.00146492943168" lon="11.031419998034835">
        <ele>1843.12</ele>
      </trkpt>
      <trkpt lat="46.001370968297124" lon="11.031400971114635">
        <ele>1846.35</ele>
      </trkpt>
      <trkpt lat="46.00132193416357" lon="11.031356966122985">
        <ele>1849.42</ele>
      </trkpt>
      <trkpt lat="46.00125295110047" lon="11.031329976394773">
        <ele>1852.41</ele>
      </trkpt>
      <trkpt lat="46.0011219419539" lon="11.031347997486591">
        <ele>1855.4</ele>
      </trkpt>
      <trkpt lat="46.00106494501233" lon="11.031284965574741">
        <ele>1858.23</ele>
      </trkpt>
      <trkpt lat="46.00086595863104" lon="11.031221933662891">
        <ele>1861.17</ele>
      </trkpt>
      <trkpt lat="46.00079094059765" lon="11.03123995475471">
        <ele>1863.77</ele>
      </trkpt>
      <trkpt lat="46.00072296336293" lon="11.031257975846529">
        <ele>1866.27</ele>
      </trkpt>
      <trkpt lat="46.00067895837128" lon="11.031284965574741">
        <ele>1868.65</ele>
      </trkpt>
      <trkpt lat="46.00064794532955" lon="11.031293934211135">
        <ele>1870.95</ele>
      </trkpt>
      <trkpt lat="46.000622967258096" lon="11.031274991109967">
        <ele>1873.18</ele>
      </trkpt>
      <trkpt lat="46.00058499723673" lon="11.031274991109967">
        <ele>1875.36</ele>
      </trkpt>
      <trkpt lat="46.00052297115326" lon="11.031310949474573">
        <ele>1877.5</ele>
      </trkpt>
      <trkpt lat="46.00050394423306" lon="11.03130198083818">
        <ele>1879.54</ele>
      </trkpt>
      <trkpt lat="46.00048491731286" lon="11.031274991109967">
        <ele>1881.54</ele>
      </trkpt>
      <trkpt lat="46.00044191814959" lon="11.031274991109967">
        <ele>1883.52</ele>
      </trkpt>
      <trkpt lat="46.00040394812822" lon="11.031247917562723">
        <ele>1885.46</ele>
      </trkpt>
      <trkpt lat="46.000209990888834" lon="11.031221933662891">
        <ele>1887.51</ele>
      </trkpt>
      <trkpt lat="46.000085938721895" lon="11.031221933662891">
        <ele>1889.75</ele>
      </trkpt>
      <trkpt lat="45.99997999146581" lon="11.031211959198117">
        <ele>1891.59</ele>
      </trkpt>
      <trkpt lat="45.99991092458367" lon="11.031140964478254">
        <ele>1893.4</ele>
      </trkpt>
      <trkpt lat="45.999892987310886" lon="11.03113199584186">
        <ele>1895.06</ele>
      </trkpt>
      <trkpt lat="45.99982392042875" lon="11.031123949214816">
        <ele>1896.71</ele>
      </trkpt>
      <trkpt lat="45.999760972335935" lon="11.031184969469905">
        <ele>1898.25</ele>
      </trkpt>
      <trkpt lat="45.999673968181014" lon="11.03123995475471">
        <ele>1899.8</ele>
      </trkpt>
      <trkpt lat="45.999524937942624" lon="11.031230986118317">
        <ele>1901.44</ele>
      </trkpt>
      <trkpt lat="45.99948093295097" lon="11.031194943934679">
        <ele>1902.85</ele>
      </trkpt>
      <trkpt lat="45.99945494905114" lon="11.03123995475471">
        <ele>1904.14</ele>
      </trkpt>
      <trkpt lat="45.999418990686536" lon="11.031247917562723">
        <ele>1905.38</ele>
      </trkpt>
      <trkpt lat="45.999311953783035" lon="11.031158985570073">
        <ele>1906.7</ele>
      </trkpt>
      <trkpt lat="45.999286975711584" lon="11.031158985570073">
        <ele>1907.78</ele>
      </trkpt>
      <trkpt lat="45.99926199764013" lon="11.031167954206467">
        <ele>1908.77</ele>
      </trkpt>
      <trkpt lat="45.999243976548314" lon="11.031167954206467">
        <ele>1909.69</ele>
      </trkpt>
      <trkpt lat="45.99921899847686" lon="11.03117692284286">
        <ele>1910.55</ele>
      </trkpt>
      <trkpt lat="45.99919997155666" lon="11.03117692284286">
        <ele>1911.32</ele>
      </trkpt>
      <trkpt lat="45.99918697960675" lon="11.031167954206467">
        <ele>1912.03</ele>
      </trkpt>
      <trkpt lat="45.99917499348521" lon="11.03117692284286">
        <ele>1912.68</ele>
      </trkpt>
      <trkpt lat="45.99915596656501" lon="11.031184969469905">
        <ele>1913.28</ele>
      </trkpt>
      <trkpt lat="45.999137945473194" lon="11.031194943934679">
        <ele>1913.84</ele>
      </trkpt>
      <trkpt lat="45.99912495352328" lon="11.031211959198117">
        <ele>1914.34</ele>
      </trkpt>
      <trkpt lat="45.99909997545183" lon="11.031221933662891">
        <ele>1914.82</ele>
      </trkpt>
      <trkpt lat="45.99906896241009" lon="11.03123995475471">
        <ele>1915.29</ele>
      </trkpt>
      <trkpt lat="45.99904993548989" lon="11.031257975846529">
        <ele>1915.71</ele>
      </trkpt>
      <trkpt lat="45.99902495741844" lon="11.031274991109967">
        <ele>1916.12</ele>
      </trkpt>
      <trkpt lat="45.99901297129691" lon="11.031284965574741">
        <ele>1916.49</ele>
      </trkpt>
      <trkpt lat="45.99899997934699" lon="11.031293934211135">
        <ele>1916.86</ele>
      </trkpt>
      <trkpt lat="45.998986987397075" lon="11.031293934211135">
        <ele>1917.24</ele>
      </trkpt>
      <trkpt lat="45.99897491745651" lon="11.031293934211135">
        <ele>1917.6</ele>
      </trkpt>
      <trkpt lat="45.99895698018372" lon="11.031293934211135">
        <ele>1917.97</ele>
      </trkpt>
      <trkpt lat="45.99893795326352" lon="11.031284965574741">
        <ele>1918.36</ele>
      </trkpt>
      <trkpt lat="45.99891892634332" lon="11.031284965574741">
        <ele>1918.74</ele>
      </trkpt>
      <trkpt lat="45.998905934393406" lon="11.031293934211135">
        <ele>1919.12</ele>
      </trkpt>
      <trkpt lat="45.99889394827187" lon="11.031293934211135">
        <ele>1919.5</ele>
      </trkpt>
      <trkpt lat="45.99887492135167" lon="11.031284965574741">
        <ele>1919.91</ele>
      </trkpt>
      <trkpt lat="45.998862935230136" lon="11.031284965574741">
        <ele>1920.31</ele>
      </trkpt>
      <trkpt lat="45.9988509491086" lon="11.031293934211135">
        <ele>1920.72</ele>
      </trkpt>
      <trkpt lat="45.998837957158685" lon="11.03130198083818">
        <ele>1921.14</ele>
      </trkpt>
      <trkpt lat="45.99882496520877" lon="11.031310949474573">
        <ele>1921.56</ele>
      </trkpt>
      <trkpt lat="45.99881297908723" lon="11.031310949474573">
        <ele>1921.99</ele>
      </trkpt>
      <trkpt lat="45.998793952167034" lon="11.031310949474573">
        <ele>1922.44</ele>
      </trkpt>
      <trkpt lat="45.99876897409558" lon="11.03130198083818">
        <ele>1922.9</ele>
      </trkpt>
      <trkpt lat="45.99874399602413" lon="11.031310949474573">
        <ele>1923.35</ele>
      </trkpt>
      <trkpt lat="45.99871893413365" lon="11.031310949474573">
        <ele>1923.81</ele>
      </trkpt>
      <trkpt lat="45.99869999103248" lon="11.03130198083818">
        <ele>1924.25</ele>
      </trkpt>
      <trkpt lat="45.99868196994066" lon="11.03130198083818">
        <ele>1924.68</ele>
      </trkpt>
      <trkpt lat="45.998663948848844" lon="11.03130198083818">
        <ele>1925.09</ele>
      </trkpt>
      <trkpt lat="45.99863796494901" lon="11.031310949474573">
        <ele>1925.5</ele>
      </trkpt>
      <trkpt lat="45.99861893802881" lon="11.031310949474573">
        <ele>1925.89</ele>
      </trkpt>
      <trkpt lat="45.99860695190728" lon="11.031310949474573">
        <ele>1926.25</ele>
      </trkpt>
      <trkpt lat="45.998581973835826" lon="11.031320923939347">
        <ele>1926.59</ele>
      </trkpt>
      <trkpt lat="45.99855096079409" lon="11.031320923939347">
        <ele>1926.93</ele>
      </trkpt>
      <trkpt lat="45.99853193387389" lon="11.031320923939347">
        <ele>1927.22</ele>
      </trkpt>
      <trkpt lat="45.998512990772724" lon="11.031320923939347">
        <ele>1927.5</ele>
      </trkpt>
      <trkpt lat="45.99850092083216" lon="11.031320923939347">
        <ele>1927.73</ele>
      </trkpt>
      <trkpt lat="45.99848893471062" lon="11.031320923939347">
        <ele>1927.92</ele>
      </trkpt>
      <trkpt lat="45.998469991609454" lon="11.031329976394773">
        <ele>1928.1</ele>
      </trkpt>
      <trkpt lat="45.99845699965954" lon="11.031320923939347">
        <ele>1928.22</ele>
      </trkpt>
      <trkpt lat="45.99844492971897" lon="11.031320923939347">
        <ele>1928.3</ele>
      </trkpt>
      <trkpt lat="45.998431937769055" lon="11.031320923939347">
        <ele>1928.36</ele>
      </trkpt>
      <trkpt lat="45.998425986617804" lon="11.031320923939347">
        <ele>1928.39</ele>
      </trkpt>
      <trkpt lat="45.99841299466789" lon="11.031320923939347">
        <ele>1928.4</ele>
      </trkpt>
      <trkpt lat="45.99839497357607" lon="11.031329976394773">
        <ele>1928.39</ele>
      </trkpt>
      <trkpt lat="45.998382987454534" lon="11.031320923939347">
        <ele>1928.38</ele>
      </trkpt>
      <trkpt lat="45.998363960534334" lon="11.031320923939347">
        <ele>1928.35</ele>
      </trkpt>
      <trkpt lat="45.99835096858442" lon="11.031320923939347">
        <ele>1928.32</ele>
      </trkpt>
      <trkpt lat="45.99833898246288" lon="11.031329976394773">
        <ele>1928.3</ele>
      </trkpt>
      <trkpt lat="45.99832599051297" lon="11.031329976394773">
        <ele>1928.29</ele>
      </trkpt>
      <trkpt lat="45.998319955542684" lon="11.031329976394773">
        <ele>1928.29</ele>
      </trkpt>
      <trkpt lat="45.998300928622484" lon="11.031329976394773">
        <ele>1928.32</ele>
      </trkpt>
      <trkpt lat="45.998276956379414" lon="11.031320923939347">
        <ele>1928.38</ele>
      </trkpt>
      <trkpt lat="45.9982449375093" lon="11.031310949474573">
        <ele>1928.49</ele>
      </trkpt>
      <trkpt lat="45.998213924467564" lon="11.031293934211135">
        <ele>1928.64</ele>
      </trkpt>
      <trkpt lat="45.998131949454546" lon="11.03130198083818">
        <ele>1928.82</ele>
      </trkpt>
      <trkpt lat="45.99805098026991" lon="11.031356966122985">
        <ele>1929.04</ele>
      </trkpt>
      <trkpt lat="45.99800798110664" lon="11.031419998034835">
        <ele>1929.37</ele>
      </trkpt>
      <trkpt lat="45.997957941144705" lon="11.031490992754698">
        <ele>1929.79</ele>
      </trkpt>
      <trkpt lat="45.9978149458766" lon="11.031580930575728">
        <ele>1930.25</ele>
      </trkpt>
      <trkpt lat="45.99775199778378" lon="11.031599957495928">
        <ele>1930.79</ele>
      </trkpt>
      <trkpt lat="45.99762794561684" lon="11.031742952764034">
        <ele>1931.53</ele>
      </trkpt>
      <trkpt lat="45.99743398837745" lon="11.031976975500584">
        <ele>1932.33</ele>
      </trkpt>
      <trkpt lat="45.99730893038213" lon="11.03207596577704">
        <ele>1933.25</ele>
      </trkpt>
      <trkpt lat="45.99710893817246" lon="11.03211997076869">
        <ele>1934.33</ele>
      </trkpt>
      <trkpt lat="45.9969599917531" lon="11.032200939953327">
        <ele>1935.31</ele>
      </trkpt>
      <trkpt lat="45.996734937652946" lon="11.032173950225115">
        <ele>1936.55</ele>
      </trkpt>
      <trkpt lat="45.99649814888835" lon="11.032187445089221">
        <ele>1937.85</ele>
      </trkpt>
      <trkpt lat="45.996260941028595" lon="11.032200939953327">
        <ele>1939.31</ele>
      </trkpt>
      <trkpt lat="45.99604192189872" lon="11.032226923853159">
        <ele>1940.62</ele>
      </trkpt>
      <trkpt lat="45.995891969650984" lon="11.032236982136965">
        <ele>1941.91</ele>
      </trkpt>
      <trkpt lat="45.995785938575864" lon="11.032226923853159">
        <ele>1943.32</ele>
      </trkpt>
      <trkpt lat="45.995679991319776" lon="11.032255925238132">
        <ele>1944.82</ele>
      </trkpt>
      <trkpt lat="45.99559893831611" lon="11.032236982136965">
        <ele>1946.5</ele>
      </trkpt>
      <trkpt lat="45.99549894221127" lon="11.032245950773358">
        <ele>1948.31</ele>
      </trkpt>
      <trkpt lat="45.9953679330647" lon="11.032209992408752">
        <ele>1950.29</ele>
      </trkpt>
      <trkpt lat="45.99513307213783" lon="11.0322489682585">
        <ele>1952.48</ele>
      </trkpt>
      <trkpt lat="45.99489829503" lon="11.032287944108248">
        <ele>1954.53</ele>
      </trkpt>
      <trkpt lat="45.99466293118894" lon="11.032326919957995">
        <ele>1956.51</ele>
      </trkpt>
      <trkpt lat="45.99442597478628" lon="11.032371930778027">
        <ele>1958.73</ele>
      </trkpt>
      <trkpt lat="45.99421709775925" lon="11.032371930778027">
        <ele>1961.3</ele>
      </trkpt>
      <trkpt lat="45.99400796927512" lon="11.032371930778027">
        <ele>1964.03</ele>
      </trkpt>
      <trkpt lat="45.993788950145245" lon="11.032379977405071">
        <ele>1966.73</ele>
      </trkpt>
      <trkpt lat="45.9935459587723" lon="11.032461952418089">
        <ele>1969.18</ele>
      </trkpt>
      <trkpt lat="45.99333398044109" lon="11.032433956861496">
        <ele>1971.94</ele>
      </trkpt>
      <trkpt lat="45.99317195825279" lon="11.032398920506239">
        <ele>1974.6</ele>
      </trkpt>
      <trkpt lat="45.9930279571563" lon="11.032362962141633">
        <ele>1977.17</ele>
      </trkpt>
      <trkpt lat="45.992909939959645" lon="11.032299930229783">
        <ele>1979.76</ele>
      </trkpt>
      <trkpt lat="45.99284699186683" lon="11.032263971865177">
        <ele>1982.29</ele>
      </trkpt>
      <trkpt lat="45.99261598661542" lon="11.032236982136965">
        <ele>1984.96</ele>
      </trkpt>
      <trkpt lat="45.9925289824605" lon="11.032200939953327">
        <ele>1987.54</ele>
      </trkpt>
      <trkpt lat="45.992434937506914" lon="11.032182918861508">
        <ele>1990.12</ele>
      </trkpt>
      <trkpt lat="45.99232295528054" lon="11.032165987417102">
        <ele>1992.67</ele>
      </trkpt>
      <trkpt lat="45.99209513515234" lon="11.03220596909523">
        <ele>1995.17</ele>
      </trkpt>
      <trkpt lat="45.99186697974801" lon="11.032245950773358">
        <ele>1998.0</ele>
      </trkpt>
      <trkpt lat="45.991729935631156" lon="11.03227294050157">
        <ele>2000.77</ele>
      </trkpt>
      <trkpt lat="45.99157998338342" lon="11.032263971865177">
        <ele>2003.6</ele>
      </trkpt>
      <trkpt lat="45.99143598228693" lon="11.032245950773358">
        <ele>2006.4</ele>
      </trkpt>
      <trkpt lat="45.991341937333345" lon="11.032209992408752">
        <ele>2009.09</ele>
      </trkpt>
      <trkpt lat="45.99119894206524" lon="11.032192977145314">
        <ele>2011.86</ele>
      </trkpt>
      <trkpt lat="45.991124929860234" lon="11.032146960496902">
        <ele>2014.62</ele>
      </trkpt>
      <trkpt lat="45.991017976775765" lon="11.032020980492234">
        <ele>2017.49</ele>
      </trkpt>
      <trkpt lat="45.990973971784115" lon="11.031939927488565">
        <ele>2020.14</ele>
      </trkpt>
      <trkpt lat="45.99088093265891" lon="11.031867926940322">
        <ele>2022.92</ele>
      </trkpt>
      <trkpt lat="45.990799963474274" lon="11.031823921948671">
        <ele>2025.62</ele>
      </trkpt>
      <trkpt lat="45.99076794460416" lon="11.031823921948671">
        <ele>2028.08</ele>
      </trkpt>
      <trkpt lat="45.99075595848262" lon="11.031859964132309">
        <ele>2030.41</ele>
      </trkpt>
      <trkpt lat="45.99075595848262" lon="11.031939927488565">
        <ele>2032.64</ele>
      </trkpt>
      <trkpt lat="45.99076794460416" lon="11.031976975500584">
        <ele>2034.83</ele>
      </trkpt>
      <trkpt lat="45.99076199345291" lon="11.032047970220447">
        <ele>2037.05</ele>
      </trkpt>
      <trkpt lat="45.99072494544089" lon="11.032039923593402">
        <ele>2039.4</ele>
      </trkpt>
      <trkpt lat="45.99070591852069" lon="11.032102955505252">
        <ele>2041.64</ele>
      </trkpt>
      <trkpt lat="45.99069292657077" lon="11.032020980492234">
        <ele>2044.01</ele>
      </trkpt>
      <trkpt lat="45.99060592241585" lon="11.03201293386519">
        <ele>2046.46</ele>
      </trkpt>
      <trkpt lat="45.990568958222866" lon="11.032047970220447">
        <ele>2048.75</ele>
      </trkpt>
      <trkpt lat="45.990505926311016" lon="11.032020980492234">
        <ele>2051.19</ele>
      </trkpt>
      <trkpt lat="45.99043199792504" lon="11.031966917216778">
        <ele>2053.7</ele>
      </trkpt>
      <trkpt lat="45.99031297490001" lon="11.031949985772371">
        <ele>2056.34</ele>
      </trkpt>
      <trkpt lat="45.99023795686662" lon="11.031966917216778">
        <ele>2058.88</ele>
      </trkpt>
      <trkpt lat="45.99017593078315" lon="11.031939927488565">
        <ele>2061.44</ele>
      </trkpt>
      <trkpt lat="45.99014399573207" lon="11.031976975500584">
        <ele>2063.88</ele>
      </trkpt>
      <trkpt lat="45.9900629427284" lon="11.031976975500584">
        <ele>2066.55</ele>
      </trkpt>
      <trkpt lat="45.98993796855211" lon="11.031939927488565">
        <ele>2069.39</ele>
      </trkpt>
      <trkpt lat="45.989919947460294" lon="11.031913943588734">
        <ele>2071.82</ele>
      </trkpt>
      <trkpt lat="45.989900920540094" lon="11.031867926940322">
        <ele>2074.26</ele>
      </trkpt>
      <trkpt lat="45.98992598243058" lon="11.031769942492247">
        <ele>2076.49</ele>
      </trkpt>
      <trkpt lat="45.98993193358183" lon="11.03151798248291">
        <ele>2078.76</ele>
      </trkpt>
      <trkpt lat="45.98986999131739" lon="11.031329976394773">
        <ele>2081.38</ele>
      </trkpt>
      <trkpt lat="45.989813916385174" lon="11.031247917562723">
        <ele>2083.75</ele>
      </trkpt>
      <trkpt lat="45.989750968292356" lon="11.031194943934679">
        <ele>2085.99</ele>
      </trkpt>
      <trkpt lat="45.989725990220904" lon="11.031113974750042">
        <ele>2088.13</ele>
      </trkpt>
      <trkpt lat="45.98967595025897" lon="11.030978942289948">
        <ele>2090.26</ele>
      </trkpt>
      <trkpt lat="45.989532954990864" lon="11.03085396811366">
        <ele>2092.55</ele>
      </trkpt>
      <trkpt lat="45.98946397192776" lon="11.03087198920548">
        <ele>2094.83</ele>
      </trkpt>
      <trkpt lat="45.98940194584429" lon="11.030897973105311">
        <ele>2097.14</ele>
      </trkpt>
      <trkpt lat="45.989363975822926" lon="11.030880957841873">
        <ele>2099.36</ele>
      </trkpt>
      <trkpt lat="45.98934595473111" lon="11.03087198920548">
        <ele>2101.57</ele>
      </trkpt>
      <trkpt lat="45.989276971668005" lon="11.030880957841873">
        <ele>2103.91</ele>
      </trkpt>
      <trkpt lat="45.98923992365599" lon="11.030888920649886">
        <ele>2106.21</ele>
      </trkpt>
      <trkpt lat="45.98922098055482" lon="11.030844999477267">
        <ele>2108.44</ele>
      </trkpt>
      <trkpt lat="45.9891149494797" lon="11.030834941193461">
        <ele>2110.85</ele>
      </trkpt>
      <trkpt lat="45.98907697945833" lon="11.030844999477267">
        <ele>2113.21</ele>
      </trkpt>
      <trkpt lat="45.98905895836651" lon="11.030880957841873">
        <ele>2115.58</ele>
      </trkpt>
      <trkpt lat="45.98905895836651" lon="11.030861930921674">
        <ele>2117.91</ele>
      </trkpt>
      <trkpt lat="45.98898293450475" lon="11.03080895729363">
        <ele>2120.36</ele>
      </trkpt>
      <trkpt lat="45.98890196532011" lon="11.03080895729363">
        <ele>2122.88</ele>
      </trkpt>
      <trkpt lat="45.988801969215274" lon="11.030718935653567">
        <ele>2125.36</ele>
      </trkpt>
      <trkpt lat="45.988695938140154" lon="11.030592955648899">
        <ele>2127.86</ele>
      </trkpt>
      <trkpt lat="45.988502986729145" lon="11.030521960929036">
        <ele>2130.61</ele>
      </trkpt>
      <trkpt lat="45.988396955654025" lon="11.030494971200824">
        <ele>2132.92</ele>
      </trkpt>
      <trkpt lat="45.98830299451947" lon="11.030529923737049">
        <ele>2135.1</ele>
      </trkpt>
      <trkpt lat="45.98825295455754" lon="11.030584992840886">
        <ele>2137.24</ele>
      </trkpt>
      <trkpt lat="45.988309951499104" lon="11.030664956197143">
        <ele>2139.17</ele>
      </trkpt>
      <trkpt lat="45.98834699951112" lon="11.030781967565417">
        <ele>2141.02</ele>
      </trkpt>
      <trkpt lat="45.98825898952782" lon="11.030997969210148">
        <ele>2142.99</ele>
      </trkpt>
      <trkpt lat="45.98825898952782" lon="11.031167954206467">
        <ele>2144.5</ele>
      </trkpt>
      <trkpt lat="45.98819696344435" lon="11.031329976394773">
        <ele>2145.79</ele>
      </trkpt>
      <trkpt lat="45.98812194541097" lon="11.031490992754698">
        <ele>2146.6</ele>
      </trkpt>
      <trkpt lat="45.98806595429778" lon="11.03167095221579">
        <ele>2146.98</ele>
      </trkpt>
      <trkpt lat="45.98802295513451" lon="11.031742952764034">
        <ele>2147.3</ele>
      </trkpt>
      <trkpt lat="45.98806595429778" lon="11.03167095221579">
        <ele>2146.98</ele>
      </trkpt>
      <trkpt lat="45.98812194541097" lon="11.031490992754698">
        <ele>2146.6</ele>
      </trkpt>
      <trkpt lat="45.98819696344435" lon="11.031329976394773">
        <ele>2145.79</ele>
      </trkpt>
      <trkpt lat="45.98825898952782" lon="11.031167954206467">
        <ele>2144.5</ele>
      </trkpt>
      <trkpt lat="45.98825898952782" lon="11.030997969210148">
        <ele>2142.99</ele>
      </trkpt>
      <trkpt lat="45.98834699951112" lon="11.030781967565417">
        <ele>2141.02</ele>
      </trkpt>
      <trkpt lat="45.988309951499104" lon="11.030664956197143">
        <ele>2139.17</ele>
      </trkpt>
      <trkpt lat="45.98825295455754" lon="11.030584992840886">
        <ele>2137.24</ele>
      </trkpt>
      <trkpt lat="45.98830299451947" lon="11.030529923737049">
        <ele>2135.1</ele>
      </trkpt>
      <trkpt lat="45.988396955654025" lon="11.030494971200824">
        <ele>2132.92</ele>
      </trkpt>
      <trkpt lat="45.988502986729145" lon="11.030521960929036">
        <ele>2130.61</ele>
      </trkpt>
      <trkpt lat="45.988695938140154" lon="11.030592955648899">
        <ele>2127.86</ele>
      </trkpt>
      <trkpt lat="45.988801969215274" lon="11.030718935653567">
        <ele>2125.36</ele>
      </trkpt>
      <trkpt lat="45.98890196532011" lon="11.03080895729363">
        <ele>2122.88</ele>
      </trkpt>
      <trkpt lat="45.98898293450475" lon="11.03080895729363">
        <ele>2120.36</ele>
      </trkpt>
      <trkpt lat="45.98905895836651" lon="11.030861930921674">
        <ele>2117.91</ele>
      </trkpt>
      <trkpt lat="45.98905895836651" lon="11.030880957841873">
        <ele>2115.58</ele>
      </trkpt>
      <trkpt lat="45.98903398029506" lon="11.031293934211135">
        <ele>2110.4</ele>
      </trkpt>
      <trkpt lat="45.98910195752978" lon="11.031500967219472">
        <ele>2106.89</ele>
      </trkpt>
      <trkpt lat="45.98913992755115" lon="11.031697941944003">
        <ele>2103.24</ele>
      </trkpt>
      <trkpt lat="45.98913992755115" lon="11.031787963584065">
        <ele>2099.54</ele>
      </trkpt>
      <trkpt lat="45.9891339763999" lon="11.031850995495915">
        <ele>2095.71</ele>
      </trkpt>
      <trkpt lat="45.98905292339623" lon="11.032083928585052">
        <ele>2091.63</ele>
      </trkpt>
      <trkpt lat="45.98900883458555" lon="11.032314011827111">
        <ele>2087.57</ele>
      </trkpt>
      <trkpt lat="45.98896499723196" lon="11.032542921602726">
        <ele>2083.52</ele>
      </trkpt>
      <trkpt lat="45.98889593034983" lon="11.032802928239107">
        <ele>2079.54</ele>
      </trkpt>
      <trkpt lat="45.988808926194906" lon="11.03299998678267">
        <ele>2075.46</ele>
      </trkpt>
      <trkpt lat="45.988758970052004" lon="11.033197967335582">
        <ele>2071.22</ele>
      </trkpt>
      <trkpt lat="45.98873399198055" lon="11.033314978703856">
        <ele>2067.24</ele>
      </trkpt>
      <trkpt lat="45.98873399198055" lon="11.033431990072131">
        <ele>2063.36</ele>
      </trkpt>
      <trkpt lat="45.98874597810209" lon="11.033511953428388">
        <ele>2059.67</ele>
      </trkpt>
      <trkpt lat="45.98877196200192" lon="11.033565932884812">
        <ele>2056.16</ele>
      </trkpt>
      <trkpt lat="45.988764921203256" lon="11.033781934529543">
        <ele>2052.47</ele>
      </trkpt>
      <trkpt lat="45.98877196200192" lon="11.033943956717849">
        <ele>2049.22</ele>
      </trkpt>
      <trkpt lat="45.98881496116519" lon="11.033997936174273">
        <ele>2046.53</ele>
      </trkpt>
      <trkpt lat="45.98883993923664" lon="11.034123999997973">
        <ele>2043.92</ele>
      </trkpt>
      <trkpt lat="45.98889593034983" lon="11.034257942810655">
        <ele>2041.7</ele>
      </trkpt>
      <trkpt lat="45.98894597031176" lon="11.034446954727173">
        <ele>2039.75</ele>
      </trkpt>
      <trkpt lat="45.988976983353496" lon="11.03458994999528">
        <ele>2038.18</ele>
      </trkpt>
      <trkpt lat="45.98896499723196" lon="11.034716935828328">
        <ele>2036.98</ele>
      </trkpt>
      <trkpt lat="45.98895896226168" lon="11.034850962460041">
        <ele>2036.13</ele>
      </trkpt>
      <trkpt lat="45.98897094838321" lon="11.034886920824647">
        <ele>2035.77</ele>
      </trkpt>
      <trkpt lat="45.98898896947503" lon="11.034949952736497">
        <ele>2035.8</ele>
      </trkpt>
      <trkpt lat="45.98905895836651" lon="11.034985994920135">
        <ele>2036.19</ele>
      </trkpt>
      <trkpt lat="45.9891339763999" lon="11.035119937732816">
        <ele>2036.78</ele>
      </trkpt>
      <trkpt lat="45.98920195363462" lon="11.035308949649334">
        <ele>2037.92</ele>
      </trkpt>
      <trkpt lat="45.98924595862627" lon="11.035631988197565">
        <ele>2039.67</ele>
      </trkpt>
      <trkpt lat="45.98924595862627" lon="11.035874979570508">
        <ele>2041.29</ele>
      </trkpt>
      <trkpt lat="45.989214945584536" lon="11.036161975935102">
        <ele>2043.39</ele>
      </trkpt>
      <trkpt lat="45.98922693170607" lon="11.036260966211557">
        <ele>2045.4</ele>
      </trkpt>
      <trkpt lat="45.98924595862627" lon="11.036278987303376">
        <ele>2047.39</ele>
      </trkpt>
      <trkpt lat="45.989295998588204" lon="11.036234982311726">
        <ele>2049.37</ele>
      </trkpt>
      <trkpt lat="45.989320976659656" lon="11.036188965663314">
        <ele>2051.4</ele>
      </trkpt>
      <trkpt lat="45.98934595473111" lon="11.036081928759813">
        <ele>2053.33</ele>
      </trkpt>
      <trkpt lat="45.989363975822926" lon="11.036000959575176">
        <ele>2055.35</ele>
      </trkpt>
      <trkpt lat="45.98937696777284" lon="11.035928959026933">
        <ele>2057.49</ele>
      </trkpt>
      <trkpt lat="45.989407980814576" lon="11.035847989842296">
        <ele>2059.72</ele>
      </trkpt>
      <trkpt lat="45.98948299884796" lon="11.035884954035282">
        <ele>2062.2</ele>
      </trkpt>
      <trkpt lat="45.98952096886933" lon="11.035928959026933">
        <ele>2064.54</ele>
      </trkpt>
      <trkpt lat="45.9895639680326" lon="11.036027949303389">
        <ele>2066.97</ele>
      </trkpt>
      <trkpt lat="45.989619959145784" lon="11.03600892238319">
        <ele>2068.99</ele>
      </trkpt>
      <trkpt lat="45.989638986065984" lon="11.036063991487026">
        <ele>2071.14</ele>
      </trkpt>
      <trkpt lat="45.989688942208886" lon="11.036251997575164">
        <ele>2073.48</ele>
      </trkpt>
      <trkpt lat="45.989725990220904" lon="11.036270940676332">
        <ele>2075.33</ele>
      </trkpt>
      <trkpt lat="45.98980092443526" lon="11.036305977031589">
        <ele>2077.07</ele>
      </trkpt>
      <trkpt lat="45.98988893441856" lon="11.036413935944438">
        <ele>2078.73</ele>
      </trkpt>
      <trkpt lat="45.98991299048066" lon="11.036557937040925">
        <ele>2080.52</ele>
      </trkpt>
      <trkpt lat="45.98989496938884" lon="11.036584926769137">
        <ele>2082.22</ele>
      </trkpt>
      <trkpt lat="45.98993193358183" lon="11.036629937589169">
        <ele>2083.6</ele>
      </trkpt>
      <trkpt lat="45.98998197354376" lon="11.036691963672638">
        <ele>2084.9</ele>
      </trkpt>
      <trkpt lat="45.990031929686666" lon="11.036700932309031">
        <ele>2085.89</ele>
      </trkpt>
      <trkpt lat="45.990050956606865" lon="11.0367819853127">
        <ele>2087.25</ele>
      </trkpt>
      <trkpt lat="45.990069983527064" lon="11.036871923133731">
        <ele>2088.49</ele>
      </trkpt>
      <trkpt lat="45.99010694772005" lon="11.0369529761374">
        <ele>2089.5</ele>
      </trkpt>
      <trkpt lat="45.99021892994642" lon="11.036961944773793">
        <ele>2089.65</ele>
      </trkpt>
      <trkpt lat="45.99030593410134" lon="11.037033945322037">
        <ele>2090.05</ele>
      </trkpt>
      <trkpt lat="45.99040593020618" lon="11.037159925326705">
        <ele>2090.49</ele>
      </trkpt>
      <trkpt lat="45.99057499319315" lon="11.037473995238543">
        <ele>2091.54</ele>
      </trkpt>
      <trkpt lat="45.99069996736944" lon="11.03776996023953">
        <ele>2092.69</ele>
      </trkpt>
      <trkpt lat="45.99076794460416" lon="11.038003982976079">
        <ele>2093.68</ele>
      </trkpt>
      <trkpt lat="45.99081899039447" lon="11.038245968520641">
        <ele>2094.88</ele>
      </trkpt>
      <trkpt lat="45.990892918780446" lon="11.038641929626465">
        <ele>2096.32</ele>
      </trkpt>
      <trkpt lat="45.990992998704314" lon="11.038937978446484">
        <ele>2096.58</ele>
      </trkpt>
      <trkpt lat="45.990992998704314" lon="11.039010984823108">
        <ele>2096.89</ele>
      </trkpt>
      <trkpt lat="45.99100599065423" lon="11.039171917364001">
        <ele>2096.87</ele>
      </trkpt>
      <trkpt lat="45.99099995568395" lon="11.039261939004064">
        <ele>2096.75</ele>
      </trkpt>
      <trkpt lat="45.99101194180548" lon="11.039297981187701">
        <ele>2096.5</ele>
      </trkpt>
      <trkpt lat="45.99105494096875" lon="11.039324970915914">
        <ele>2096.03</ele>
      </trkpt>
      <trkpt lat="45.99108695983887" lon="11.039413986727595">
        <ele>2095.45</ele>
      </trkpt>
      <trkpt lat="45.9910989459604" lon="11.039513982832432">
        <ele>2094.51</ele>
      </trkpt>
      <trkpt lat="45.991124929860234" lon="11.03953099809587">
        <ele>2093.68</ele>
      </trkpt>
      <trkpt lat="45.99113096483052" lon="11.039593946188688">
        <ele>2092.5</ele>
      </trkpt>
      <trkpt lat="45.99116197787225" lon="11.0396209359169">
        <ele>2091.38</ele>
      </trkpt>
      <trkpt lat="45.9912059828639" lon="11.03968396782875">
        <ele>2090.07</ele>
      </trkpt>
      <trkpt lat="45.991229955106974" lon="11.039719926193357">
        <ele>2088.64</ele>
      </trkpt>
      <trkpt lat="45.99126792512834" lon="11.039719926193357">
        <ele>2087.19</ele>
      </trkpt>
      <trkpt lat="45.99132995121181" lon="11.039700983092189">
        <ele>2085.66</ele>
      </trkpt>
      <trkpt lat="45.991404969245195" lon="11.039692936465144">
        <ele>2083.91</ele>
      </trkpt>
      <trkpt lat="45.9914549253881" lon="11.039692936465144">
        <ele>2081.98</ele>
      </trkpt>
      <trkpt lat="45.99150496535003" lon="11.03968396782875">
        <ele>2079.91</ele>
      </trkpt>
      <trkpt lat="45.991573948413134" lon="11.039719926193357">
        <ele>2077.59</ele>
      </trkpt>
      <trkpt lat="45.991641925647855" lon="11.039729984477162">
        <ele>2075.13</ele>
      </trkpt>
      <trkpt lat="45.99173597060144" lon="11.039719926193357">
        <ele>2072.51</ele>
      </trkpt>
      <trkpt lat="45.991810988634825" lon="11.039763931185007">
        <ele>2069.76</ele>
      </trkpt>
      <trkpt lat="45.99182892590761" lon="11.039800979197025">
        <ele>2066.99</ele>
      </trkpt>
      <trkpt lat="45.991835966706276" lon="11.03991698473692">
        <ele>2064.05</ele>
      </trkpt>
      <trkpt lat="45.99186697974801" lon="11.039943974465132">
        <ele>2061.1</ele>
      </trkpt>
      <trkpt lat="45.991960940882564" lon="11.040079928934574">
        <ele>2057.78</ele>
      </trkpt>
      <trkpt lat="45.99196697585285" lon="11.040231976658106">
        <ele>2054.51</ele>
      </trkpt>
      <trkpt lat="45.99204199388623" lon="11.04034898802638">
        <ele>2051.27</ele>
      </trkpt>
      <trkpt lat="45.992116928100586" lon="11.04045594111085">
        <ele>2048.08</ele>
      </trkpt>
      <trkpt lat="45.992135955020785" lon="11.040501957759261">
        <ele>2045.1</ele>
      </trkpt>
      <trkpt lat="45.99217291921377" lon="11.040429957211018">
        <ele>2042.37</ele>
      </trkpt>
      <trkpt lat="45.99220393225551" lon="11.04045594111085">
        <ele>2039.58</ele>
      </trkpt>
      <trkpt lat="45.99220393225551" lon="11.040572952479124">
        <ele>2036.79</ele>
      </trkpt>
      <trkpt lat="45.992222959175706" lon="11.04067194275558">
        <ele>2034.05</ele>
      </trkpt>
      <trkpt lat="45.99225397221744" lon="11.040635984390974">
        <ele>2031.79</ele>
      </trkpt>
      <trkpt lat="45.99229797720909" lon="11.04084293358028">
        <ele>2029.31</ele>
      </trkpt>
      <trkpt lat="45.99235991947353" lon="11.04105893522501">
        <ele>2027.14</ele>
      </trkpt>
      <trkpt lat="45.99238498136401" lon="11.041094977408648">
        <ele>2025.27</ele>
      </trkpt>
      <trkpt lat="45.992540968582034" lon="11.041453974321485">
        <ele>2023.5</ele>
      </trkpt>
      <trkpt lat="45.99257793277502" lon="11.041624965146184">
        <ele>2021.88</ele>
      </trkpt>
      <trkpt lat="45.992646999657154" lon="11.041874997317791">
        <ele>2020.59</ele>
      </trkpt>
      <trkpt lat="45.99266594275832" lon="11.041991924867034">
        <ele>2019.59</ele>
      </trkpt>
      <trkpt lat="45.992715982720256" lon="11.04215394705534">
        <ele>2018.86</ele>
      </trkpt>
      <trkpt lat="45.99280994385481" lon="11.042413953691721">
        <ele>2018.19</ele>
      </trkpt>
      <trkpt lat="45.992927961051464" lon="11.042593996971846">
        <ele>2017.96</ele>
      </trkpt>
      <trkpt lat="45.9930089302361" lon="11.042620986700058">
        <ele>2017.85</ele>
      </trkpt>
      <trkpt lat="45.993039943277836" lon="11.042620986700058">
        <ele>2017.9</ele>
      </trkpt>
      <trkpt lat="45.99306492134929" lon="11.042666919529438">
        <ele>2018.07</ele>
      </trkpt>
      <trkpt lat="45.99322694353759" lon="11.042765993624926">
        <ele>2018.51</ele>
      </trkpt>
      <trkpt lat="45.99328394047916" lon="11.042792983353138">
        <ele>2019.09</ele>
      </trkpt>
      <trkpt lat="45.99330196157098" lon="11.042792983353138">
        <ele>2019.85</ele>
      </trkpt>
      <trkpt lat="45.993339931592345" lon="11.042792983353138">
        <ele>2020.8</ele>
      </trkpt>
      <trkpt lat="45.99341494962573" lon="11.042882921174169">
        <ele>2021.82</ele>
      </trkpt>
      <trkpt lat="45.99348393268883" lon="11.04303396306932">
        <ele>2022.83</ele>
      </trkpt>
      <trkpt lat="45.99360798485577" lon="11.043168995529413">
        <ele>2024.26</ele>
      </trkpt>
      <trkpt lat="45.993770929053426" lon="11.04326899163425">
        <ele>2026.13</ele>
      </trkpt>
      <trkpt lat="45.99383899010718" lon="11.043276954442263">
        <ele>2027.97</ele>
      </trkpt>
      <trkpt lat="45.99394594319165" lon="11.043348954990506">
        <ele>2029.94</ele>
      </trkpt>
      <trkpt lat="45.99400092847645" lon="11.043348954990506">
        <ele>2032.0</ele>
      </trkpt>
      <trkpt lat="45.9940449334681" lon="11.043366976082325">
        <ele>2034.15</ele>
      </trkpt>
      <trkpt lat="45.99412699230015" lon="11.043501924723387">
        <ele>2036.37</ele>
      </trkpt>
      <trkpt lat="45.994175942614675" lon="11.043564956635237">
        <ele>2038.66</ele>
      </trkpt>
      <trkpt lat="45.99425699561834" lon="11.0436359513551">
        <ele>2041.06</ele>
      </trkpt>
      <trkpt lat="45.99431399255991" lon="11.043645925819874">
        <ele>2043.58</ele>
      </trkpt>
      <trkpt lat="45.99437593482435" lon="11.043771989643574">
        <ele>2046.1</ele>
      </trkpt>
      <trkpt lat="45.99445095285773" lon="11.043815994635224">
        <ele>2048.78</ele>
      </trkpt>
      <trkpt lat="45.994649939239025" lon="11.04385195299983">
        <ele>2051.81</ele>
      </trkpt>
      <trkpt lat="45.99476896226406" lon="11.043897969648242">
        <ele>2054.5</ele>
      </trkpt>
      <trkpt lat="45.9948879852891" lon="11.043987991288304">
        <ele>2057.14</ele>
      </trkpt>
      <trkpt lat="45.994968954473734" lon="11.04400492273271">
        <ele>2059.69</ele>
      </trkpt>
      <trkpt lat="45.99510599859059" lon="11.044048927724361">
        <ele>2062.26</ele>
      </trkpt>
      <trkpt lat="45.99522493779659" lon="11.044121934100986">
        <ele>2064.63</ele>
      </trkpt>
      <trkpt lat="45.99544999189675" lon="11.044184966012836">
        <ele>2066.94</ele>
      </trkpt>
      <trkpt lat="45.99559893831611" lon="11.044247997924685">
        <ele>2069.06</ele>
      </trkpt>
      <trkpt lat="45.99568594247103" lon="11.04430097155273">
        <ele>2070.96</ele>
      </trkpt>
      <trkpt lat="45.995854921638966" lon="11.044354951009154">
        <ele>2072.61</ele>
      </trkpt>
      <trkpt lat="45.99599196575582" lon="11.044417982921004">
        <ele>2074.08</ele>
      </trkpt>
      <trkpt lat="45.99607997573912" lon="11.044498952105641">
        <ele>2075.37</ele>
      </trkpt>
      <trkpt lat="45.99605399183929" lon="11.044579921290278">
        <ele>2076.57</ele>
      </trkpt>
      <trkpt lat="45.996004957705736" lon="11.044660974293947">
        <ele>2077.58</ele>
      </trkpt>
      <trkpt lat="45.995960952714086" lon="11.044794917106628">
        <ele>2078.35</ele>
      </trkpt>
      <trkpt lat="45.995854921638966" lon="11.044803969562054">
        <ele>2078.86</ele>
      </trkpt>
      <trkpt lat="45.995960952714086" lon="11.044794917106628">
        <ele>2078.35</ele>
      </trkpt>
      <trkpt lat="45.996004957705736" lon="11.044660974293947">
        <ele>2077.58</ele>
      </trkpt>
      <trkpt lat="45.99605399183929" lon="11.044579921290278">
        <ele>2076.57</ele>
      </trkpt>
      <trkpt lat="45.99607997573912" lon="11.044498952105641">
        <ele>2075.37</ele>
      </trkpt>
      <trkpt lat="45.99610495381057" lon="11.04451697319746">
        <ele>2078.63</ele>
      </trkpt>
      <trkpt lat="45.99616697989404" lon="11.044489983469248">
        <ele>2077.93</ele>
      </trkpt>
      <trkpt lat="45.99619799293578" lon="11.044489983469248">
        <ele>2077.08</ele>
      </trkpt>
      <trkpt lat="45.99623495712876" lon="11.044507920742035">
        <ele>2076.04</ele>
      </trkpt>
      <trkpt lat="45.996285919100046" lon="11.044498952105641">
        <ele>2074.79</ele>
      </trkpt>
      <trkpt lat="45.996366972103715" lon="11.044507920742035">
        <ele>2073.34</ele>
      </trkpt>
      <trkpt lat="45.99646696820855" lon="11.044471962377429">
        <ele>2071.64</ele>
      </trkpt>
      <trkpt lat="45.99654793739319" lon="11.044480931013823">
        <ele>2069.82</ele>
      </trkpt>
      <trkpt lat="45.99659797735512" lon="11.044471962377429">
        <ele>2067.86</ele>
      </trkpt>
      <trkpt lat="45.99662899039686" lon="11.044426951557398">
        <ele>2065.7</ele>
      </trkpt>
      <trkpt lat="45.996690932661295" lon="11.044400967657566">
        <ele>2063.33</ele>
      </trkpt>
      <trkpt lat="45.996753964573145" lon="11.044400967657566">
        <ele>2060.86</ele>
      </trkpt>
      <trkpt lat="45.99682797677815" lon="11.044381940737367">
        <ele>2058.18</ele>
      </trkpt>
      <trkpt lat="45.99689092487097" lon="11.044381940737367">
        <ele>2055.41</ele>
      </trkpt>
      <trkpt lat="45.99697792902589" lon="11.044318992644548">
        <ele>2052.4</ele>
      </trkpt>
      <trkpt lat="45.99707197397947" lon="11.044274987652898">
        <ele>2049.23</ele>
      </trkpt>
      <trkpt lat="45.997246988117695" lon="11.044174991548061">
        <ele>2045.68</ele>
      </trkpt>
      <trkpt lat="45.99732192233205" lon="11.044211955741048">
        <ele>2042.53</ele>
      </trkpt>
      <trkpt lat="45.997483944520354" lon="11.04413098655641">
        <ele>2038.98</ele>
      </trkpt>
      <trkpt lat="45.99766398780048" lon="11.044058986008167">
        <ele>2035.31</ele>
      </trkpt>
      <trkpt lat="45.99773992784321" lon="11.043995954096317">
        <ele>2031.69</ele>
      </trkpt>
      <trkpt lat="45.99780195392668" lon="11.043887995183468">
        <ele>2028.0</ele>
      </trkpt>
      <trkpt lat="45.99792692810297" lon="11.043752962723374">
        <ele>2024.14</ele>
      </trkpt>
      <trkpt lat="45.998044945299625" lon="11.043734941631556">
        <ele>2020.33</ele>
      </trkpt>
      <trkpt lat="45.998131949454546" lon="11.043725972995162">
        <ele>2016.55</ele>
      </trkpt>
      <trkpt lat="45.99823194555938" lon="11.04369898326695">
        <ele>2012.72</ele>
      </trkpt>
      <trkpt lat="45.99826999939978" lon="11.04369898326695">
        <ele>2008.98</ele>
      </trkpt>
      <trkpt lat="45.998406959697604" lon="11.04385195299983">
        <ele>2005.21</ele>
      </trkpt>
      <trkpt lat="45.99850092083216" lon="11.044031996279955">
        <ele>2001.36</ele>
      </trkpt>
      <trkpt lat="45.99857593886554" lon="11.044031996279955">
        <ele>1997.41</ele>
      </trkpt>
      <trkpt lat="45.998750953003764" lon="11.044138949364424">
        <ele>1993.2</ele>
      </trkpt>
      <trkpt lat="45.998818930238485" lon="11.044184966012836">
        <ele>1989.14</ele>
      </trkpt>
      <trkpt lat="45.99884399212897" lon="11.044174991548061">
        <ele>1985.16</ele>
      </trkpt>
      <trkpt lat="45.99893795326352" lon="11.044157976284623">
        <ele>1980.99</ele>
      </trkpt>
      <trkpt lat="45.99908698350191" lon="11.04400492273271">
        <ele>1976.65</ele>
      </trkpt>
      <trkpt lat="45.99911296740174" lon="11.044013975188136">
        <ele>1972.59</ele>
      </trkpt>
      <trkpt lat="45.99918697960675" lon="11.044048927724361">
        <ele>1968.35</ele>
      </trkpt>
      <trkpt lat="45.999311953783035" lon="11.044121934100986">
        <ele>1963.88</ele>
      </trkpt>
      <trkpt lat="45.99955494515598" lon="11.043977933004498">
        <ele>1959.13</ele>
      </trkpt>
      <trkpt lat="45.999636920168996" lon="11.043861927464604">
        <ele>1954.97</ele>
      </trkpt>
      <trkpt lat="45.99979299120605" lon="11.043834937736392">
        <ele>1950.7</ele>
      </trkpt>
      <trkpt lat="45.99991695955396" lon="11.043752962723374">
        <ele>1946.56</ele>
      </trkpt>
      <trkpt lat="45.99994193762541" lon="11.04369898326695">
        <ele>1942.59</ele>
      </trkpt>
      <trkpt lat="45.99997999146581" lon="11.043689930811524">
        <ele>1938.68</ele>
      </trkpt>
      <trkpt lat="46.00014192983508" lon="11.043608961626887">
        <ele>1934.5</ele>
      </trkpt>
      <trkpt lat="46.000173948705196" lon="11.043599992990494">
        <ele>1930.65</ele>
      </trkpt>
      <trkpt lat="46.000279979780316" lon="11.043474934995174">
        <ele>1926.74</ele>
      </trkpt>
      <trkpt lat="46.00050394423306" lon="11.043411986902356">
        <ele>1922.57</ele>
      </trkpt>
      <trkpt lat="46.00065398029983" lon="11.043303944170475">
        <ele>1918.48</ele>
      </trkpt>
      <trkpt lat="46.00074098445475" lon="11.043195985257626">
        <ele>1914.52</ele>
      </trkpt>
      <trkpt lat="46.00080996751785" lon="11.043168995529413">
        <ele>1910.72</ele>
      </trkpt>
      <trkpt lat="46.00087199360132" lon="11.0432059597224">
        <ele>1907.05</ele>
      </trkpt>
      <trkpt lat="46.00093494169414" lon="11.043295981362462">
        <ele>1903.34</ele>
      </trkpt>
      <trkpt lat="46.00100291892886" lon="11.04335892945528">
        <ele>1899.55</ele>
      </trkpt>
      <trkpt lat="46.00108397193253" lon="11.04335892945528">
        <ele>1895.63</ele>
      </trkpt>
      <trkpt lat="46.0011219419539" lon="11.043348954990506">
        <ele>1891.81</ele>
      </trkpt>
      <trkpt lat="46.001202994957566" lon="11.043258933350444">
        <ele>1887.8</ele>
      </trkpt>
      <trkpt lat="46.001245994120836" lon="11.043258933350444">
        <ele>1883.88</ele>
      </trkpt>
      <trkpt lat="46.001439951360226" lon="11.043366976082325">
        <ele>1879.57</ele>
      </trkpt>
      <trkpt lat="46.001502983272076" lon="11.043348954990506">
        <ele>1875.51</ele>
      </trkpt>
      <trkpt lat="46.0015519335866" lon="11.043321965262294">
        <ele>1871.42</ele>
      </trkpt>
      <trkpt lat="46.00159593857825" lon="11.043178969994187">
        <ele>1867.26</ele>
      </trkpt>
      <trkpt lat="46.00164597854018" lon="11.043088948354125">
        <ele>1862.99</ele>
      </trkpt>
      <trkpt lat="46.00167095661163" lon="11.042845956981182">
        <ele>1858.5</ele>
      </trkpt>
      <trkpt lat="46.00166492164135" lon="11.042629955336452">
        <ele>1854.04</ele>
      </trkpt>
      <trkpt lat="46.00168998353183" lon="11.042405990883708">
        <ele>1849.49</ele>
      </trkpt>
      <trkpt lat="46.001738933846354" lon="11.04215394705534">
        <ele>1844.81</ele>
      </trkpt>
      <trkpt lat="46.00179593078792" lon="11.042019920423627">
        <ele>1840.14</ele>
      </trkpt>
      <trkpt lat="46.00185192190111" lon="11.041893940418959">
        <ele>1835.37</ele>
      </trkpt>
      <trkpt lat="46.001870948821306" lon="11.041784975677729">
        <ele>1830.6</ele>
      </trkpt>
      <trkpt lat="46.00183892995119" lon="11.041668970137835">
        <ele>1825.89</ele>
      </trkpt>
      <trkpt lat="46.001870948821306" lon="11.04157098568976">
        <ele>1820.94</ele>
      </trkpt>
      <trkpt lat="46.00188293494284" lon="11.041461937129498">
        <ele>1816.01</ele>
      </trkpt>
      <trkpt lat="46.00183892995119" lon="11.041381973773241">
        <ele>1811.29</ele>
      </trkpt>
      <trkpt lat="46.001864997670054" lon="11.041308967396617">
        <ele>1806.29</ele>
      </trkpt>
      <trkpt lat="46.00201394408941" lon="11.041210982948542">
        <ele>1800.91</ele>
      </trkpt>
      <trkpt lat="46.002125926315784" lon="11.041192961856723">
        <ele>1795.71</ele>
      </trkpt>
      <trkpt lat="46.00234494544566" lon="11.041075950488448">
        <ele>1790.16</ele>
      </trkpt>
      <trkpt lat="46.00250093266368" lon="11.041048960760236">
        <ele>1784.82</ele>
      </trkpt>
      <trkpt lat="46.00261299870908" lon="11.040985928848386">
        <ele>1779.52</ele>
      </trkpt>
      <trkpt lat="46.002625990659" lon="11.040878975763917">
        <ele>1774.4</ele>
      </trkpt>
      <trkpt lat="46.00277493707836" lon="11.040788954123855">
        <ele>1768.98</ele>
      </trkpt>
      <trkpt lat="46.00282598286867" lon="11.040788954123855">
        <ele>1763.98</ele>
      </trkpt>
      <trkpt lat="46.002899995073676" lon="11.040797922760248">
        <ele>1758.99</ele>
      </trkpt>
      <trkpt lat="46.00297492928803" lon="11.040761964395642">
        <ele>1754.0</ele>
      </trkpt>
      <trkpt lat="46.00304399617016" lon="11.040618969127536">
        <ele>1748.87</ele>
      </trkpt>
      <trkpt lat="46.003112979233265" lon="11.040582926943898">
        <ele>1743.95</ele>
      </trkpt>
      <trkpt lat="46.00322496145964" lon="11.040572952479124">
        <ele>1739.02</ele>
      </trkpt>
      <trkpt lat="46.00332495756447" lon="11.040591979399323">
        <ele>1734.16</ele>
      </trkpt>
      <trkpt lat="46.00336192175746" lon="11.040582926943898">
        <ele>1729.45</ele>
      </trkpt>
      <trkpt lat="46.003499971702695" lon="11.040492989122868">
        <ele>1724.44</ele>
      </trkpt>
      <trkpt lat="46.003567948937416" lon="11.040402967482805">
        <ele>1719.64</ele>
      </trkpt>
      <trkpt lat="46.00361195392907" lon="11.04030397720635">
        <ele>1714.91</ele>
      </trkpt>
      <trkpt lat="46.00368697196245" lon="11.0402409452945">
        <ele>1710.25</ele>
      </trkpt>
      <trkpt lat="46.00376794114709" lon="11.040150923654437">
        <ele>1705.61</ele>
      </trkpt>
      <trkpt lat="46.003929963335395" lon="11.039979932829738">
        <ele>1700.76</ele>
      </trkpt>
      <trkpt lat="46.00396097637713" lon="11.039979932829738">
        <ele>1696.44</ele>
      </trkpt>
      <trkpt lat="46.0040039755404" lon="11.039899969473481">
        <ele>1692.07</ele>
      </trkpt>
      <trkpt lat="46.00405493751168" lon="11.039872979745269">
        <ele>1687.81</ele>
      </trkpt>
      <trkpt lat="46.00420396775007" lon="11.039782958105206">
        <ele>1683.23</ele>
      </trkpt>
      <trkpt lat="46.004254929721355" lon="11.039729984477162">
        <ele>1679.08</ele>
      </trkpt>
      <trkpt lat="46.004297928884625" lon="11.039494955912232">
        <ele>1674.74</ele>
      </trkpt>
      <trkpt lat="46.004316955804825" lon="11.03940493427217">
        <ele>1670.74</ele>
      </trkpt>
      <trkpt lat="46.00430396385491" lon="11.039350954815745">
        <ele>1666.94</ele>
      </trkpt>
      <trkpt lat="46.004335982725024" lon="11.039279960095882">
        <ele>1663.11</ele>
      </trkpt>
      <trkpt lat="46.00436699576676" lon="11.039261939004064">
        <ele>1659.46</ele>
      </trkpt>
      <trkpt lat="46.0044289380312" lon="11.039171917364001">
        <ele>1655.7</ele>
      </trkpt>
      <trkpt lat="46.00445995107293" lon="11.039090948179364">
        <ele>1652.15</ele>
      </trkpt>
      <trkpt lat="46.00452298298478" lon="11.039063958451152">
        <ele>1648.73</ele>
      </trkpt>
      <trkpt lat="46.00458492524922" lon="11.038983995094895">
        <ele>1645.33</ele>
      </trkpt>
      <trkpt lat="46.004809979349375" lon="11.03874091990292">
        <ele>1641.58</ele>
      </trkpt>
      <trkpt lat="46.00484099239111" lon="11.038677971810102">
        <ele>1638.48</ele>
      </trkpt>
      <trkpt lat="46.00484694354236" lon="11.038623992353678">
        <ele>1635.52</ele>
      </trkpt>
      <trkpt lat="46.00488399155438" lon="11.038605971261859">
        <ele>1632.67</ele>
      </trkpt>
      <trkpt lat="46.00493495352566" lon="11.038605971261859">
        <ele>1629.9</ele>
      </trkpt>
      <trkpt lat="46.00499094463885" lon="11.038623992353678">
        <ele>1627.24</ele>
      </trkpt>
      <trkpt lat="46.00506495684385" lon="11.038632960990071">
        <ele>1624.63</ele>
      </trkpt>
      <trkpt lat="46.00535195320845" lon="11.038767993450165">
        <ele>1621.94</ele>
      </trkpt>
      <trkpt lat="46.00554599426687" lon="11.03897494263947">
        <ele>1619.67</ele>
      </trkpt>
      <trkpt lat="46.00570793263614" lon="11.039126990363002">
        <ele>1617.45</ele>
      </trkpt>
      <trkpt lat="46.00585193373263" lon="11.039216928184032">
        <ele>1615.15</ele>
      </trkpt>
      <trkpt lat="46.00606994703412" lon="11.039297981187701">
        <ele>1612.86</ele>
      </trkpt>
      <trkpt lat="46.00615091621876" lon="11.039171917364001">
        <ele>1610.77</ele>
      </trkpt>
      <trkpt lat="46.00621294230223" lon="11.03901894763112">
        <ele>1608.8</ele>
      </trkpt>
      <trkpt lat="46.00641922093928" lon="11.039138557389379">
        <ele>1606.95</ele>
      </trkpt>
      <trkpt lat="46.00662549957633" lon="11.039258250966668">
        <ele>1605.19</ele>
      </trkpt>
      <trkpt lat="46.006831945851445" lon="11.039377944543958">
        <ele>1603.51</ele>
      </trkpt>
      <trkpt lat="46.00703093223274" lon="11.039603920653462">
        <ele>1601.95</ele>
      </trkpt>
      <trkpt lat="46.00716194137931" lon="11.039755968376994">
        <ele>1600.48</ele>
      </trkpt>
      <trkpt lat="46.007348941639066" lon="11.040060985833406">
        <ele>1599.03</ele>
      </trkpt>
      <trkpt lat="46.0074957087636" lon="11.04035384953022">
        <ele>1597.53</ele>
      </trkpt>
      <trkpt lat="46.00764197297394" lon="11.040645958855748">
        <ele>1596.09</ele>
      </trkpt>
      <trkpt lat="46.007692934945226" lon="11.04067194275558">
        <ele>1594.83</ele>
      </trkpt>
      <trkpt lat="46.00774792023003" lon="11.040599942207336">
        <ele>1593.65</ele>
      </trkpt>
      <trkpt lat="46.00790088996291" lon="11.040514949709177">
        <ele>1592.45</ele>
      </trkpt>
      <trkpt lat="46.008053943514824" lon="11.040429957211018">
        <ele>1591.3</ele>
      </trkpt>
      <trkpt lat="46.00823801010847" lon="11.040254943072796">
        <ele>1590.21</ele>
      </trkpt>
      <trkpt lat="46.008421992883086" lon="11.040079928934574">
        <ele>1589.25</ele>
      </trkpt>
      <trkpt lat="46.00860899314284" lon="11.039935927838087">
        <ele>1588.29</ele>
      </trkpt>
      <trkpt lat="46.00869691930711" lon="11.039935927838087">
        <ele>1587.39</ele>
      </trkpt>
      <trkpt lat="46.00893999449909" lon="11.039880942553282">
        <ele>1586.49</ele>
      </trkpt>
      <trkpt lat="46.009238976985216" lon="11.039863927289844">
        <ele>1585.66</ele>
      </trkpt>
      <trkpt lat="46.00948875769973" lon="11.039858981966972">
        <ele>1584.96</ele>
      </trkpt>
      <trkpt lat="46.0097389575094" lon="11.03985395282507">
        <ele>1584.27</ele>
      </trkpt>
      <trkpt lat="46.009863931685686" lon="11.039899969473481">
        <ele>1583.61</ele>
      </trkpt>
      <trkpt lat="46.010038359090686" lon="11.039890497922897">
        <ele>1582.92</ele>
      </trkpt>
      <trkpt lat="46.01021295413375" lon="11.039880942553282">
        <ele>1582.27</ele>
      </trkpt>
      <trkpt lat="46.01033792831004" lon="11.039872979745269">
        <ele>1581.68</ele>
      </trkpt>
      <trkpt lat="46.01049995049834" lon="11.039872979745269">
        <ele>1581.13</ele>
      </trkpt>
      <trkpt lat="46.01062492467463" lon="11.039907932281494">
        <ele>1580.61</ele>
      </trkpt>
      <trkpt lat="46.01073095574975" lon="11.039989991113544">
        <ele>1580.07</ele>
      </trkpt>
      <trkpt lat="46.010998925194144" lon="11.040060985833406">
        <ele>1579.55</ele>
      </trkpt>
      <trkpt lat="46.011148961260915" lon="11.0400699544698">
        <ele>1579.04</ele>
      </trkpt>
      <trkpt lat="46.01126697845757" lon="11.0400699544698">
        <ele>1578.52</ele>
      </trkpt>
      <trkpt lat="46.011404944583774" lon="11.040060985833406">
        <ele>1577.95</ele>
      </trkpt>
      <trkpt lat="46.011553974822164" lon="11.039989991113544">
        <ele>1577.44</ele>
      </trkpt>
      <trkpt lat="46.01170040667057" lon="11.039895443245769">
        <ele>1576.89</ele>
      </trkpt>
      <trkpt lat="46.01184692233801" lon="11.039800979197025">
        <ele>1576.34</ele>
      </trkpt>
      <trkpt lat="46.01204699836671" lon="11.039611967280507">
        <ele>1575.88</ele>
      </trkpt>
      <trkpt lat="46.0122219286859" lon="11.039396971464157">
        <ele>1575.43</ele>
      </trkpt>
      <trkpt lat="46.01230298168957" lon="11.039333939552307">
        <ele>1575.05</ele>
      </trkpt>
      <trkpt lat="46.012371964752674" lon="11.03931499645114">
        <ele>1574.68</ele>
      </trkpt>
      <trkpt lat="46.0125089250505" lon="11.039324970915914">
        <ele>1574.29</ele>
      </trkpt>
      <trkpt lat="46.012652926146984" lon="11.039377944543958">
        <ele>1573.93</ele>
      </trkpt>
      <trkpt lat="46.01283296942711" lon="11.039431924000382">
        <ele>1573.67</ele>
      </trkpt>
      <trkpt lat="46.012888960540295" lon="11.039440976455808">
        <ele>1573.42</ele>
      </trkpt>
      <trkpt lat="46.01298895664513" lon="11.039431924000382">
        <ele>1573.2</ele>
      </trkpt>
      <trkpt lat="46.0130269266665" lon="11.039396971464157">
        <ele>1572.98</ele>
      </trkpt>
      <trkpt lat="46.013038996607065" lon="11.039324970915914">
        <ele>1572.77</ele>
      </trkpt>
      <trkpt lat="46.013020975515246" lon="11.039197985082865">
        <ele>1572.61</ele>
      </trkpt>
      <trkpt lat="46.01298895664513" lon="11.039117937907577">
        <ele>1572.48</ele>
      </trkpt>
      <trkpt lat="46.01296992972493" lon="11.038920963183045">
        <ele>1572.4</ele>
      </trkpt>
      <trkpt lat="46.01294595748186" lon="11.038623992353678">
        <ele>1572.36</ele>
      </trkpt>
      <trkpt lat="46.01296992972493" lon="11.03837194852531">
        <ele>1572.25</ele>
      </trkpt>
      <trkpt lat="46.0130459535867" lon="11.03813893161714">
        <ele>1572.1</ele>
      </trkpt>
      <trkpt lat="46.01306992582977" lon="11.037931982427835">
        <ele>1571.96</ele>
      </trkpt>
      <trkpt lat="46.01308895274997" lon="11.037581954151392">
        <ele>1571.74</ele>
      </trkpt>
      <trkpt lat="46.01310194469988" lon="11.03716797195375">
        <ele>1571.61</ele>
      </trkpt>
      <trkpt lat="46.013126922771335" lon="11.03688994422555">
        <ele>1573.27</ele>
      </trkpt>
      <trkpt lat="46.01321996189654" lon="11.036871923133731">
        <ele>1570.99</ele>
      </trkpt>
      <trkpt lat="46.01331392303109" lon="11.036853985860944">
        <ele>1569.03</ele>
      </trkpt>
      <trkpt lat="46.013406962156296" lon="11.036880975589156">
        <ele>1567.31</ele>
      </trkpt>
      <trkpt lat="46.01350695826113" lon="11.036836970597506">
        <ele>1565.94</ele>
      </trkpt>
      <trkpt lat="46.013600919395685" lon="11.036800928413868">
        <ele>1564.89</ele>
      </trkpt>
      <trkpt lat="46.01370099931955" lon="11.036826996132731">
        <ele>1564.04</ele>
      </trkpt>
      <trkpt lat="46.01378791965544" lon="11.036907965317369">
        <ele>1563.38</ele>
      </trkpt>
      <trkpt lat="46.01382496766746" lon="11.036970997229218">
        <ele>1562.91</ele>
      </trkpt>
      <trkpt lat="46.01384994573891" lon="11.037006955593824">
        <ele>1562.64</ele>
      </trkpt>
      <trkpt lat="46.01394994184375" lon="11.037024976685643">
        <ele>1562.56</ele>
      </trkpt>
      <trkpt lat="46.014093942940235" lon="11.037042997777462">
        <ele>1562.64</ele>
      </trkpt>
      <trkpt lat="46.014093942940235" lon="11.036970997229218">
        <ele>1562.82</ele>
      </trkpt>
      <trkpt lat="46.01419393904507" lon="11.03699798695743">
        <ele>1563.1</ele>
      </trkpt>
      <trkpt lat="46.014373982325196" lon="11.037033945322037">
        <ele>1563.45</ele>
      </trkpt>
      <trkpt lat="46.01453935727477" lon="11.037051966413856">
        <ele>1571.37</ele>
      </trkpt>
      <trkpt lat="46.01470498368144" lon="11.037069987505674">
        <ele>1564.32</ele>
      </trkpt>
      <trkpt lat="46.0148798301816" lon="11.03701600804925">
        <ele>1571.53</ele>
      </trkpt>
      <trkpt lat="46.01505492813885" lon="11.036961944773793">
        <ele>1565.43</ele>
      </trkpt>
      <trkpt lat="46.015235306695104" lon="11.03693495504558">
        <ele>1571.59</ele>
      </trkpt>
      <trkpt lat="46.01541593670845" lon="11.036907965317369">
        <ele>1566.53</ele>
      </trkpt>
      <trkpt lat="46.01560293696821" lon="11.037006955593824">
        <ele>1567.21</ele>
      </trkpt>
      <trkpt lat="46.01577795110643" lon="11.037150956690311">
        <ele>1567.89</ele>
      </trkpt>
      <trkpt lat="46.016026977449656" lon="11.037293951958418">
        <ele>1568.62</ele>
      </trkpt>
      <trkpt lat="46.01616494357586" lon="11.037356983870268">
        <ele>1569.25</ele>
      </trkpt>
      <trkpt lat="46.01625798270106" lon="11.03755597025156">
        <ele>1569.73</ele>
      </trkpt>
      <trkpt lat="46.016344986855984" lon="11.03770692832768">
        <ele>1570.12</ele>
      </trkpt>
      <trkpt lat="46.01645193994045" lon="11.037851935252547">
        <ele>1570.44</ele>
      </trkpt>
      <trkpt lat="46.01661999709904" lon="11.037895940244198">
        <ele>1570.68</ele>
      </trkpt>
      <trkpt lat="46.0167829412967" lon="11.038066931068897">
        <ele>1570.75</ele>
      </trkpt>
      <trkpt lat="46.01697597652674" lon="11.038075983524323">
        <ele>1570.81</ele>
      </trkpt>
      <trkpt lat="46.017187954857945" lon="11.03820196352899">
        <ele>1570.7</ele>
      </trkpt>
      <trkpt lat="46.0173059720546" lon="11.038327943533659">
        <ele>1570.46</ele>
      </trkpt>
      <trkpt lat="46.017443938180804" lon="11.038425927981734">
        <ele>1570.11</ele>
      </trkpt>
      <trkpt lat="46.01756195537746" lon="11.038461970165372">
        <ele>1569.66</ele>
      </trkpt>
      <trkpt lat="46.017767982557416" lon="11.038632960990071">
        <ele>1569.03</ele>
      </trkpt>
      <trkpt lat="46.017892956733704" lon="11.038811998441815">
        <ele>1568.35</ele>
      </trkpt>
      <trkpt lat="46.017979960888624" lon="11.039073932915926">
        <ele>1567.58</ele>
      </trkpt>
      <trkpt lat="46.018129996955395" lon="11.03936092928052">
        <ele>1566.88</ele>
      </trkpt>
      <trkpt lat="46.018172996118665" lon="11.03942396119237">
        <ele>1566.51</ele>
      </trkpt>
      <trkpt lat="46.01829193532467" lon="11.039584977552295">
        <ele>1566.19</ele>
      </trkpt>
      <trkpt lat="46.01837893947959" lon="11.03968396782875">
        <ele>1565.95</ele>
      </trkpt>
      <trkpt lat="46.01853492669761" lon="11.039782958105206">
        <ele>1565.78</ele>
      </trkpt>
      <trkpt lat="46.01878495886922" lon="11.039872979745269">
        <ele>1565.69</ele>
      </trkpt>
      <trkpt lat="46.01889694109559" lon="11.039943974465132">
        <ele>1565.52</ele>
      </trkpt>
      <trkpt lat="46.01900297217071" lon="11.039979932829738">
        <ele>1565.38</ele>
      </trkpt>
      <trkpt lat="46.01913398131728" lon="11.040079928934574">
        <ele>1565.27</ele>
      </trkpt>
      <trkpt lat="46.01927110925317" lon="11.040273131802678">
        <ele>1564.28</ele>
      </trkpt>
      <trkpt lat="46.01940798573196" lon="11.040465999394655">
        <ele>1565.13</ele>
      </trkpt>
      <trkpt lat="46.0195769648999" lon="11.040645958855748">
        <ele>1565.08</ele>
      </trkpt>
      <trkpt lat="46.01977352052927" lon="11.040829522535205">
        <ele>1564.33</ele>
      </trkpt>
      <trkpt lat="46.01996999233961" lon="11.041012918576598">
        <ele>1565.1</ele>
      </trkpt>
      <trkpt lat="46.02012597955763" lon="11.041201930493116">
        <ele>1565.24</ele>
      </trkpt>
      <trkpt lat="46.02023192681372" lon="11.04144492186606">
        <ele>1565.48</ele>
      </trkpt>
      <trkpt lat="46.02030694484711" lon="11.041597975417972">
        <ele>1565.75</ele>
      </trkpt>
      <trkpt lat="46.02041004225612" lon="11.041773157194257">
        <ele>1565.69</ele>
      </trkpt>
      <trkpt lat="46.02051297202706" lon="11.041947919875383">
        <ele>1566.32</ele>
      </trkpt>
      <trkpt lat="46.020686980336905" lon="11.042243968695402">
        <ele>1566.62</ele>
      </trkpt>
      <trkpt lat="46.02084296755493" lon="11.042199963703752">
        <ele>1566.98</ele>
      </trkpt>
      <trkpt lat="46.021011946722865" lon="11.042171968147159">
        <ele>1567.36</ele>
      </trkpt>
      <trkpt lat="46.021141950041056" lon="11.042126957327127">
        <ele>1567.77</ele>
      </trkpt>
      <trkpt lat="46.02127396501601" lon="11.042100973427296">
        <ele>1568.23</ele>
      </trkpt>
      <trkpt lat="46.02132392115891" lon="11.042180936783552">
        <ele>1568.8</ele>
      </trkpt>
      <trkpt lat="46.0214229952544" lon="11.04232493788004">
        <ele>1569.39</ele>
      </trkpt>
      <trkpt lat="46.0214539244771" lon="11.042440943419933">
        <ele>1569.93</ele>
      </trkpt>
      <trkpt lat="46.02144797332585" lon="11.042557954788208">
        <ele>1570.41</ele>
      </trkpt>
      <trkpt lat="46.02142894640565" lon="11.04264797642827">
        <ele>1570.8</ele>
      </trkpt>
      <trkpt lat="46.02137999609113" lon="11.042737998068333">
        <ele>1571.09</ele>
      </trkpt>
      <trkpt lat="46.02132995612919" lon="11.04275593534112">
        <ele>1571.22</ele>
      </trkpt>
      <trkpt lat="46.02133599109948" lon="11.04281896725297">
        <ele>1571.26</ele>
      </trkpt>
      <trkpt lat="46.02124194614589" lon="11.042836988344789">
        <ele>1571.15</ele>
      </trkpt>
      <trkpt lat="46.02123599499464" lon="11.042710924521089">
        <ele>1571.01</ele>
      </trkpt>
      <trkpt lat="46.02117992006242" lon="11.042656945064664">
        <ele>1570.72</ele>
      </trkpt>
      <trkpt lat="46.021117977797985" lon="11.042666919529438">
        <ele>1570.37</ele>
      </trkpt>
      <trkpt lat="46.02090910077095" lon="11.04269340634346">
        <ele>1570.06</ele>
      </trkpt>
      <trkpt lat="46.02069997228682" lon="11.042719976976514">
        <ele>1569.8</ele>
      </trkpt>
    </trkseg>
  </trk>
</gpx>
