<?xml version='1.0' encoding='UTF-8'?>
<gpx version="1.1" creator="https://www.komoot.de" xmlns="http://www.topografix.com/GPX/1/1" xmlns:xsi="http://www.w3.org/2001/XMLSchema-instance" xsi:schemaLocation="http://www.topografix.com/GPX/1/1 http://www.topografix.com/GPX/1/1/gpx.xsd">
  <metadata>
    <name>Sardagna – Parish Church of Cognola loop from Sardagna</name>
    <author>
      <link href="https://www.komoot.de">
        <text>komoot</text>
        <type>text/html</type>
      </link>
    </author>
  </metadata>
  <wpt lat="46.065715" lon="11.099607">
    <name>Parking</name>
    <sym>Flag, Blue</sym>
  </wpt>
  <wpt lat="46.064894" lon="11.097527">
    <name>Sardagna</name>
    <sym>Shopping Center</sym>
  </wpt>
  <wpt lat="46.073592" lon="11.087618">
    <name>Rest Bench in the Forest</name>
    <sym>Picnic Area</sym>
  </wpt>
  <wpt lat="46.066555" lon="11.091821">
    <name>Picnic Area in the Chestnut Grove</name>
    <sym>Picnic Area</sym>
  </wpt>
  <wpt lat="46.061651" lon="11.091409">
    <name>Viewpoint</name>
    <sym>Flag, Blue</sym>
  </wpt>
  <wpt lat="46.063071" lon="11.096335">
    <name>Parish Church of Cognola</name>
    <sym>Flag, Blue</sym>
  </wpt>
  <wpt lat="46.061548" lon="11.101963">
    <name>Church of Saint Philip and James</name>
    <sym>Flag, Blue</sym>
  </wpt>
  <trk>
    <name>Sardagna – Parish Church of Cognola loop from Sardagna</name>
    <trkseg>
      <trkpt lat="46.065751" lon="11.099557">
        <ele>563.018207</ele>
        <time>2026-02-05T12:53:05.450Z</time>
      </trkpt>
      <trkpt lat="46.065679" lon="11.099451">
        <ele>563.018207</ele>
        <time>2026-02-05T12:53:15.911Z</time>
      </trkpt>
      <trkpt lat="46.065533" lon="11.099224">
        <ele>563.018207</ele>
        <time>2026-02-05T12:53:38.477Z</time>
      </trkpt>
      <trkpt lat="46.065488" lon="11.099143">
        <ele>563.018207</ele>
        <time>2026-02-05T12:53:46.046Z</time>
      </trkpt>
      <trkpt lat="46.065475" lon="11.099111">
        <ele>563.018207</ele>
        <time>2026-02-05T12:53:48.740Z</time>
      </trkpt>
      <trkpt lat="46.065450" lon="11.098908">
        <ele>563.018207</ele>
        <time>2026-02-05T12:54:03.871Z</time>
      </trkpt>
      <trkpt lat="46.065432" lon="11.098743">
        <ele>563.018207</ele>
        <time>2026-02-05T12:54:15.995Z</time>
      </trkpt>
      <trkpt lat="46.065217" lon="11.098347">
        <ele>563.737615</ele>
        <time>2026-02-05T12:54:53.752Z</time>
      </trkpt>
      <trkpt lat="46.065035" lon="11.098068">
        <ele>565.280280</ele>
        <time>2026-02-05T12:55:23.668Z</time>
      </trkpt>
      <trkpt lat="46.064950" lon="11.097827">
        <ele>566.369366</ele>
        <time>2026-02-05T12:55:46.124Z</time>
      </trkpt>
      <trkpt lat="46.064985" lon="11.097824">
        <ele>566.572935</ele>
        <time>2026-02-05T12:55:50.321Z</time>
      </trkpt>
      <trkpt lat="46.064954" lon="11.097674">
        <ele>567.203437</ele>
        <time>2026-02-05T12:56:03.490Z</time>
      </trkpt>
      <trkpt lat="46.064910" lon="11.097517">
        <ele>567.885547</ele>
        <time>2026-02-05T12:56:17.765Z</time>
      </trkpt>
      <trkpt lat="46.064768" lon="11.097178">
        <ele>569.480759</ele>
        <time>2026-02-05T12:56:51.047Z</time>
      </trkpt>
      <trkpt lat="46.064674" lon="11.096990">
        <ele>570.414267</ele>
        <time>2026-02-05T12:57:10.781Z</time>
      </trkpt>
      <trkpt lat="46.064622" lon="11.096893">
        <ele>570.908073</ele>
        <time>2026-02-05T12:57:21.316Z</time>
      </trkpt>
      <trkpt lat="46.064641" lon="11.096871">
        <ele>571.049579</ele>
        <time>2026-02-05T12:57:24.295Z</time>
      </trkpt>
      <trkpt lat="46.064674" lon="11.096833">
        <ele>571.294821</ele>
        <time>2026-02-05T12:57:29.476Z</time>
      </trkpt>
      <trkpt lat="46.064589" lon="11.096526">
        <ele>572.626389</ele>
        <time>2026-02-05T12:57:58.357Z</time>
      </trkpt>
      <trkpt lat="46.064572" lon="11.096456">
        <ele>572.925156</ele>
        <time>2026-02-05T12:58:04.865Z</time>
      </trkpt>
      <trkpt lat="46.064572" lon="11.096319">
        <ele>573.473293</ele>
        <time>2026-02-05T12:58:16.963Z</time>
      </trkpt>
      <trkpt lat="46.064729" lon="11.096248">
        <ele>574.203193</ele>
        <time>2026-02-05T12:58:38.197Z</time>
      </trkpt>
      <trkpt lat="46.064726" lon="11.096230">
        <ele>574.260168</ele>
        <time>2026-02-05T12:58:39.901Z</time>
      </trkpt>
      <trkpt lat="46.064771" lon="11.096217">
        <ele>574.463750</ele>
        <time>2026-02-05T12:58:45.956Z</time>
      </trkpt>
      <trkpt lat="46.064937" lon="11.096150">
        <ele>575.228422</ele>
        <time>2026-02-05T12:59:08.698Z</time>
      </trkpt>
      <trkpt lat="46.065289" lon="11.096153">
        <ele>576.789852</ele>
        <time>2026-02-05T12:59:54.491Z</time>
      </trkpt>
      <trkpt lat="46.065441" lon="11.096139">
        <ele>577.465469</ele>
        <time>2026-02-05T13:00:13.298Z</time>
      </trkpt>
      <trkpt lat="46.065558" lon="11.096054">
        <ele>578.046664</ele>
        <time>2026-02-05T13:00:28.450Z</time>
      </trkpt>
      <trkpt lat="46.065691" lon="11.095873">
        <ele>578.858068</ele>
        <time>2026-02-05T13:00:48.885Z</time>
      </trkpt>
      <trkpt lat="46.065698" lon="11.095667">
        <ele>579.492836</ele>
        <time>2026-02-05T13:01:04.310Z</time>
      </trkpt>
      <trkpt lat="46.065765" lon="11.095611">
        <ele>579.836394</ele>
        <time>2026-02-05T13:01:12.517Z</time>
      </trkpt>
      <trkpt lat="46.065818" lon="11.095549">
        <ele>580.139184</ele>
        <time>2026-02-05T13:01:19.633Z</time>
      </trkpt>
      <trkpt lat="46.065853" lon="11.095600">
        <ele>580.359958</ele>
        <time>2026-02-05T13:01:24.714Z</time>
      </trkpt>
      <trkpt lat="46.065882" lon="11.095559">
        <ele>580.540154</ele>
        <time>2026-02-05T13:01:28.915Z</time>
      </trkpt>
      <trkpt lat="46.065972" lon="11.095436">
        <ele>581.090320</ele>
        <time>2026-02-05T13:01:41.383Z</time>
      </trkpt>
      <trkpt lat="46.066108" lon="11.095607">
        <ele>580.978799</ele>
        <time>2026-02-05T13:01:59.950Z</time>
      </trkpt>
      <trkpt lat="46.066249" lon="11.095657">
        <ele>580.321308</ele>
        <time>2026-02-05T13:02:15.421Z</time>
      </trkpt>
      <trkpt lat="46.066597" lon="11.095576">
        <ele>578.725141</ele>
        <time>2026-02-05T13:02:54.377Z</time>
      </trkpt>
      <trkpt lat="46.067177" lon="11.095564">
        <ele>576.098620</ele>
        <time>2026-02-05T13:04:00.344Z</time>
      </trkpt>
      <trkpt lat="46.067461" lon="11.095425">
        <ele>574.740541</ele>
        <time>2026-02-05T13:04:34.130Z</time>
      </trkpt>
      <trkpt lat="46.067513" lon="11.095367">
        <ele>574.442814</ele>
        <time>2026-02-05T13:04:41.372Z</time>
      </trkpt>
      <trkpt lat="46.067619" lon="11.094950">
        <ele>573.237351</ele>
        <time>2026-02-05T13:05:15.088Z</time>
      </trkpt>
      <trkpt lat="46.068161" lon="11.094466">
        <ele>572.562388</ele>
        <time>2026-02-05T13:06:23.239Z</time>
      </trkpt>
      <trkpt lat="46.068686" lon="11.094166">
        <ele>571.964534</ele>
        <time>2026-02-05T13:07:21.420Z</time>
      </trkpt>
      <trkpt lat="46.069221" lon="11.094057">
        <ele>571.392548</ele>
        <time>2026-02-05T13:08:18.074Z</time>
      </trkpt>
      <trkpt lat="46.069410" lon="11.093965">
        <ele>573.667446</ele>
        <time>2026-02-05T13:08:40.029Z</time>
      </trkpt>
      <trkpt lat="46.069497" lon="11.093774">
        <ele>575.488014</ele>
        <time>2026-02-05T13:08:58.019Z</time>
      </trkpt>
      <trkpt lat="46.069644" lon="11.093580">
        <ele>577.777044</ele>
        <time>2026-02-05T13:09:21.759Z</time>
      </trkpt>
      <trkpt lat="46.070347" lon="11.092813">
        <ele>587.902987</ele>
        <time>2026-02-05T13:11:39.441Z</time>
      </trkpt>
      <trkpt lat="46.070387" lon="11.092659">
        <ele>589.213208</ele>
        <time>2026-02-05T13:12:00.826Z</time>
      </trkpt>
      <trkpt lat="46.070417" lon="11.092208">
        <ele>593.157669</ele>
        <time>2026-02-05T13:13:00.479Z</time>
      </trkpt>
      <trkpt lat="46.070446" lon="11.092101">
        <ele>594.468012</ele>
        <time>2026-02-05T13:13:15.550Z</time>
      </trkpt>
      <trkpt lat="46.070383" lon="11.091800">
        <ele>598.054269</ele>
        <time>2026-02-05T13:13:57.896Z</time>
      </trkpt>
      <trkpt lat="46.070387" lon="11.091693">
        <ele>599.276556</ele>
        <time>2026-02-05T13:14:12.198Z</time>
      </trkpt>
      <trkpt lat="46.070435" lon="11.091559">
        <ele>600.996767</ele>
        <time>2026-02-05T13:14:32.792Z</time>
      </trkpt>
      <trkpt lat="46.070666" lon="11.091275">
        <ele>605.988662</ele>
        <time>2026-02-05T13:15:31.728Z</time>
      </trkpt>
      <trkpt lat="46.070711" lon="11.091162">
        <ele>607.474864</ele>
        <time>2026-02-05T13:15:48.674Z</time>
      </trkpt>
      <trkpt lat="46.070915" lon="11.090958">
        <ele>611.557076</ele>
        <time>2026-02-05T13:16:31.979Z</time>
      </trkpt>
      <trkpt lat="46.071247" lon="11.090727">
        <ele>617.618335</ele>
        <time>2026-02-05T13:17:30.600Z</time>
      </trkpt>
      <trkpt lat="46.071529" lon="11.090652">
        <ele>622.218035</ele>
        <time>2026-02-05T13:18:12.783Z</time>
      </trkpt>
      <trkpt lat="46.071823" lon="11.090695">
        <ele>626.292038</ele>
        <time>2026-02-05T13:18:55.737Z</time>
      </trkpt>
      <trkpt lat="46.071987" lon="11.090780">
        <ele>628.694720</ele>
        <time>2026-02-05T13:19:20.857Z</time>
      </trkpt>
      <trkpt lat="46.072119" lon="11.090755">
        <ele>630.530161</ele>
        <time>2026-02-05T13:19:40.189Z</time>
      </trkpt>
      <trkpt lat="46.072379" lon="11.090592">
        <ele>634.438964</ele>
        <time>2026-02-05T13:20:22.268Z</time>
      </trkpt>
      <trkpt lat="46.072663" lon="11.090492">
        <ele>638.469415</ele>
        <time>2026-02-05T13:21:06.884Z</time>
      </trkpt>
      <trkpt lat="46.073069" lon="11.090474">
        <ele>644.069326</ele>
        <time>2026-02-05T13:22:15.597Z</time>
      </trkpt>
      <trkpt lat="46.072860" lon="11.090128">
        <ele>648.304958</ele>
        <time>2026-02-05T13:23:11.251Z</time>
      </trkpt>
      <trkpt lat="46.072609" lon="11.090022">
        <ele>651.641754</ele>
        <time>2026-02-05T13:23:55.791Z</time>
      </trkpt>
      <trkpt lat="46.072745" lon="11.089804">
        <ele>654.236584</ele>
        <time>2026-02-05T13:24:28.212Z</time>
      </trkpt>
      <trkpt lat="46.073177" lon="11.088936">
        <ele>663.691361</ele>
        <time>2026-02-05T13:26:13.303Z</time>
      </trkpt>
      <trkpt lat="46.073659" lon="11.088235">
        <ele>672.434262</ele>
        <time>2026-02-05T13:27:45.451Z</time>
      </trkpt>
      <trkpt lat="46.073682" lon="11.088113">
        <ele>673.555960</ele>
        <time>2026-02-05T13:27:57.395Z</time>
      </trkpt>
      <trkpt lat="46.073669" lon="11.088001">
        <ele>674.563489</ele>
        <time>2026-02-05T13:28:08.296Z</time>
      </trkpt>
      <trkpt lat="46.073601" lon="11.087877">
        <ele>675.965901</ele>
        <time>2026-02-05T13:28:23.440Z</time>
      </trkpt>
      <trkpt lat="46.073532" lon="11.087841">
        <ele>676.904399</ele>
        <time>2026-02-05T13:28:34.537Z</time>
      </trkpt>
      <trkpt lat="46.073546" lon="11.087612">
        <ele>678.944073</ele>
        <time>2026-02-05T13:28:57.564Z</time>
      </trkpt>
      <trkpt lat="46.073550" lon="11.087544">
        <ele>679.549567</ele>
        <time>2026-02-05T13:29:04.185Z</time>
      </trkpt>
      <trkpt lat="46.073506" lon="11.087345">
        <ele>681.402700</ele>
        <time>2026-02-05T13:29:26.929Z</time>
      </trkpt>
      <trkpt lat="46.073425" lon="11.087152">
        <ele>683.404067</ele>
        <time>2026-02-05T13:29:52.893Z</time>
      </trkpt>
      <trkpt lat="46.073277" lon="11.086889">
        <ele>686.408719</ele>
        <time>2026-02-05T13:30:34.655Z</time>
      </trkpt>
      <trkpt lat="46.073042" lon="11.086296">
        <ele>692.446577</ele>
        <time>2026-02-05T13:31:50.196Z</time>
      </trkpt>
      <trkpt lat="46.072797" lon="11.086047">
        <ele>695.460272</ele>
        <time>2026-02-05T13:32:31.811Z</time>
      </trkpt>
      <trkpt lat="46.072700" lon="11.085883">
        <ele>696.963337</ele>
        <time>2026-02-05T13:32:51.592Z</time>
      </trkpt>
      <trkpt lat="46.072657" lon="11.085878">
        <ele>697.397029</ele>
        <time>2026-02-05T13:32:57.304Z</time>
      </trkpt>
      <trkpt lat="46.072620" lon="11.085918">
        <ele>697.861989</ele>
        <time>2026-02-05T13:33:03.442Z</time>
      </trkpt>
      <trkpt lat="46.072625" lon="11.085999">
        <ele>698.429145</ele>
        <time>2026-02-05T13:33:10.797Z</time>
      </trkpt>
      <trkpt lat="46.072769" lon="11.086350">
        <ele>701.273163</ele>
        <time>2026-02-05T13:33:49.028Z</time>
      </trkpt>
      <trkpt lat="46.072891" lon="11.086779">
        <ele>704.506785</ele>
        <time>2026-02-05T13:34:33.909Z</time>
      </trkpt>
      <trkpt lat="46.072921" lon="11.087031">
        <ele>706.290008</ele>
        <time>2026-02-05T13:34:57.872Z</time>
      </trkpt>
      <trkpt lat="46.072916" lon="11.087335">
        <ele>708.410802</ele>
        <time>2026-02-05T13:35:25.519Z</time>
      </trkpt>
      <trkpt lat="46.072752" lon="11.087374">
        <ele>710.081814</ele>
        <time>2026-02-05T13:35:45.430Z</time>
      </trkpt>
      <trkpt lat="46.072671" lon="11.087240">
        <ele>710.391639</ele>
        <time>2026-02-05T13:35:59.928Z</time>
      </trkpt>
      <trkpt lat="46.072589" lon="11.087207">
        <ele>710.334573</ele>
        <time>2026-02-05T13:36:10.024Z</time>
      </trkpt>
      <trkpt lat="46.072485" lon="11.087223">
        <ele>710.264467</ele>
        <time>2026-02-05T13:36:22.270Z</time>
      </trkpt>
      <trkpt lat="46.072362" lon="11.087079">
        <ele>710.158254</ele>
        <time>2026-02-05T13:36:40.791Z</time>
      </trkpt>
      <trkpt lat="46.072244" lon="11.087340">
        <ele>710.013388</ele>
        <time>2026-02-05T13:37:05.945Z</time>
      </trkpt>
      <trkpt lat="46.072118" lon="11.087472">
        <ele>709.908982</ele>
        <time>2026-02-05T13:37:23.774Z</time>
      </trkpt>
      <trkpt lat="46.072140" lon="11.087648">
        <ele>709.825822</ele>
        <time>2026-02-05T13:37:37.551Z</time>
      </trkpt>
      <trkpt lat="46.072033" lon="11.087956">
        <ele>709.665643</ele>
        <time>2026-02-05T13:38:02.053Z</time>
      </trkpt>
      <trkpt lat="46.071999" lon="11.088210">
        <ele>709.545351</ele>
        <time>2026-02-05T13:38:21.315Z</time>
      </trkpt>
      <trkpt lat="46.071793" lon="11.088457">
        <ele>709.365744</ele>
        <time>2026-02-05T13:38:52.621Z</time>
      </trkpt>
      <trkpt lat="46.071404" lon="11.088642">
        <ele>706.655205</ele>
        <time>2026-02-05T13:39:44.017Z</time>
      </trkpt>
      <trkpt lat="46.071281" lon="11.088792">
        <ele>704.827413</ele>
        <time>2026-02-05T13:40:04.421Z</time>
      </trkpt>
      <trkpt lat="46.070873" lon="11.089124">
        <ele>699.512195</ele>
        <time>2026-02-05T13:41:03.208Z</time>
      </trkpt>
      <trkpt lat="46.070511" lon="11.089495">
        <ele>694.473201</ele>
        <time>2026-02-05T13:41:57.349Z</time>
      </trkpt>
      <trkpt lat="46.070389" lon="11.089555">
        <ele>693.010818</ele>
        <time>2026-02-05T13:42:12.822Z</time>
      </trkpt>
      <trkpt lat="46.070286" lon="11.089645">
        <ele>691.644388</ele>
        <time>2026-02-05T13:42:27.271Z</time>
      </trkpt>
      <trkpt lat="46.070032" lon="11.089720">
        <ele>688.754621</ele>
        <time>2026-02-05T13:42:58.309Z</time>
      </trkpt>
      <trkpt lat="46.069813" lon="11.089879">
        <ele>687.025938</ele>
        <time>2026-02-05T13:43:27.856Z</time>
      </trkpt>
      <trkpt lat="46.069584" lon="11.090188">
        <ele>684.814538</ele>
        <time>2026-02-05T13:44:06.357Z</time>
      </trkpt>
      <trkpt lat="46.069367" lon="11.090341">
        <ele>683.111531</ele>
        <time>2026-02-05T13:44:36.806Z</time>
      </trkpt>
      <trkpt lat="46.069267" lon="11.090354">
        <ele>682.403698</ele>
        <time>2026-02-05T13:44:49.180Z</time>
      </trkpt>
      <trkpt lat="46.069225" lon="11.090400">
        <ele>682.031829</ele>
        <time>2026-02-05T13:44:55.510Z</time>
      </trkpt>
      <trkpt lat="46.069172" lon="11.090541">
        <ele>681.247485</ele>
        <time>2026-02-05T13:45:08.937Z</time>
      </trkpt>
      <trkpt lat="46.069252" lon="11.090779">
        <ele>679.953998</ele>
        <time>2026-02-05T13:45:29.895Z</time>
      </trkpt>
      <trkpt lat="46.069298" lon="11.091015">
        <ele>678.755033</ele>
        <time>2026-02-05T13:45:48.464Z</time>
      </trkpt>
      <trkpt lat="46.069336" lon="11.091468">
        <ele>676.523272</ele>
        <time>2026-02-05T13:46:21.285Z</time>
      </trkpt>
      <trkpt lat="46.069256" lon="11.091545">
        <ele>676.648447</ele>
        <time>2026-02-05T13:46:31.169Z</time>
      </trkpt>
      <trkpt lat="46.069157" lon="11.091552">
        <ele>677.735776</ele>
        <time>2026-02-05T13:46:41.992Z</time>
      </trkpt>
      <trkpt lat="46.069057" lon="11.091591">
        <ele>678.872216</ele>
        <time>2026-02-05T13:46:54.248Z</time>
      </trkpt>
      <trkpt lat="46.069035" lon="11.091628">
        <ele>679.243084</ele>
        <time>2026-02-05T13:46:58.078Z</time>
      </trkpt>
      <trkpt lat="46.069050" lon="11.091463">
        <ele>680.509607</ele>
        <time>2026-02-05T13:47:12.867Z</time>
      </trkpt>
      <trkpt lat="46.069103" lon="11.091413">
        <ele>681.204477</ele>
        <time>2026-02-05T13:47:20.829Z</time>
      </trkpt>
      <trkpt lat="46.069141" lon="11.091307">
        <ele>682.112559</ele>
        <time>2026-02-05T13:47:32.060Z</time>
      </trkpt>
      <trkpt lat="46.068932" lon="11.091295">
        <ele>684.407091</ele>
        <time>2026-02-05T13:48:00.805Z</time>
      </trkpt>
      <trkpt lat="46.068408" lon="11.091414">
        <ele>690.226246</ele>
        <time>2026-02-05T13:49:36.023Z</time>
      </trkpt>
      <trkpt lat="46.068401" lon="11.091337">
        <ele>690.817296</ele>
        <time>2026-02-05T13:49:46.568Z</time>
      </trkpt>
      <trkpt lat="46.068481" lon="11.091139">
        <ele>692.561173</ele>
        <time>2026-02-05T13:50:17.472Z</time>
      </trkpt>
      <trkpt lat="46.068705" lon="11.090708">
        <ele>696.171247</ele>
        <time>2026-02-05T13:51:20.685Z</time>
      </trkpt>
      <trkpt lat="46.068129" lon="11.091337">
        <ele>699.065179</ele>
        <time>2026-02-05T13:52:52.355Z</time>
      </trkpt>
      <trkpt lat="46.067645" lon="11.091741">
        <ele>701.304986</ele>
        <time>2026-02-05T13:53:48.297Z</time>
      </trkpt>
      <trkpt lat="46.067327" lon="11.091969">
        <ele>702.727318</ele>
        <time>2026-02-05T13:54:25.787Z</time>
      </trkpt>
      <trkpt lat="46.066967" lon="11.092317">
        <ele>704.258325</ele>
        <time>2026-02-05T13:55:13.192Z</time>
      </trkpt>
      <trkpt lat="46.066825" lon="11.092401">
        <ele>704.781085</ele>
        <time>2026-02-05T13:55:29.198Z</time>
      </trkpt>
      <trkpt lat="46.066199" lon="11.092655">
        <ele>706.995937</ele>
        <time>2026-02-05T13:56:42.739Z</time>
      </trkpt>
      <trkpt lat="46.066181" lon="11.092662">
        <ele>707.059433</ele>
        <time>2026-02-05T13:56:45.108Z</time>
      </trkpt>
      <trkpt lat="46.066039" lon="11.092674">
        <ele>707.543875</ele>
        <time>2026-02-05T13:57:02.857Z</time>
      </trkpt>
      <trkpt lat="46.065920" lon="11.092610">
        <ele>707.976452</ele>
        <time>2026-02-05T13:57:18.819Z</time>
      </trkpt>
      <trkpt lat="46.065860" lon="11.092435">
        <ele>708.437709</ele>
        <time>2026-02-05T13:57:36.145Z</time>
      </trkpt>
      <trkpt lat="46.065864" lon="11.092336">
        <ele>708.672042</ele>
        <time>2026-02-05T13:57:44.974Z</time>
      </trkpt>
      <trkpt lat="46.065894" lon="11.092278">
        <ele>708.842988</ele>
        <time>2026-02-05T13:57:51.446Z</time>
      </trkpt>
      <trkpt lat="46.065947" lon="11.092261">
        <ele>709.027907</ele>
        <time>2026-02-05T13:57:58.213Z</time>
      </trkpt>
      <trkpt lat="46.065964" lon="11.092098">
        <ele>709.608846</ele>
        <time>2026-02-05T13:58:13.133Z</time>
      </trkpt>
      <trkpt lat="46.065939" lon="11.091893">
        <ele>710.575116</ele>
        <time>2026-02-05T13:58:32.072Z</time>
      </trkpt>
      <trkpt lat="46.065862" lon="11.091741">
        <ele>711.448818</ele>
        <time>2026-02-05T13:58:49.418Z</time>
      </trkpt>
      <trkpt lat="46.066098" lon="11.091814">
        <ele>713.063827</ele>
        <time>2026-02-05T13:59:21.578Z</time>
      </trkpt>
      <trkpt lat="46.066555" lon="11.091838">
        <ele>716.123597</ele>
        <time>2026-02-05T14:00:23.448Z</time>
      </trkpt>
      <trkpt lat="46.066098" lon="11.091814">
        <ele>719.183368</ele>
        <time>2026-02-05T14:01:17.211Z</time>
      </trkpt>
      <trkpt lat="46.065862" lon="11.091741">
        <ele>720.798377</ele>
        <time>2026-02-05T14:01:42.802Z</time>
      </trkpt>
      <trkpt lat="46.065744" lon="11.091669">
        <ele>721.162212</ele>
        <time>2026-02-05T14:01:56.151Z</time>
      </trkpt>
      <trkpt lat="46.065603" lon="11.091640">
        <ele>720.946004</ele>
        <time>2026-02-05T14:02:10.822Z</time>
      </trkpt>
      <trkpt lat="46.065511" lon="11.091522">
        <ele>720.759053</ele>
        <time>2026-02-05T14:02:23.343Z</time>
      </trkpt>
      <trkpt lat="46.064988" lon="11.091477">
        <ele>719.963720</ele>
        <time>2026-02-05T14:03:16.127Z</time>
      </trkpt>
      <trkpt lat="46.064647" lon="11.091495">
        <ele>719.445732</ele>
        <time>2026-02-05T14:03:51.419Z</time>
      </trkpt>
      <trkpt lat="46.064093" lon="11.091372">
        <ele>718.594834</ele>
        <time>2026-02-05T14:04:51.481Z</time>
      </trkpt>
      <trkpt lat="46.063902" lon="11.091365">
        <ele>717.028347</ele>
        <time>2026-02-05T14:05:12.754Z</time>
      </trkpt>
      <trkpt lat="46.063390" lon="11.091187">
        <ele>711.554246</ele>
        <time>2026-02-05T14:06:12.968Z</time>
      </trkpt>
      <trkpt lat="46.062990" lon="11.091153">
        <ele>707.389628</ele>
        <time>2026-02-05T14:07:00.477Z</time>
      </trkpt>
      <trkpt lat="46.062152" lon="11.091189">
        <ele>697.810056</ele>
        <time>2026-02-05T14:08:47.234Z</time>
      </trkpt>
      <trkpt lat="46.061772" lon="11.091239">
        <ele>690.865282</ele>
        <time>2026-02-05T14:09:41.088Z</time>
      </trkpt>
      <trkpt lat="46.061641" lon="11.091316">
        <ele>688.290402</ele>
        <time>2026-02-05T14:10:01.820Z</time>
      </trkpt>
      <trkpt lat="46.061661" lon="11.091368">
        <ele>687.539575</ele>
        <time>2026-02-05T14:10:09.613Z</time>
      </trkpt>
      <trkpt lat="46.062147" lon="11.091618">
        <ele>678.147801</ele>
        <time>2026-02-05T14:11:45.867Z</time>
      </trkpt>
      <trkpt lat="46.062170" lon="11.091674">
        <ele>677.325998</ele>
        <time>2026-02-05T14:11:54.490Z</time>
      </trkpt>
      <trkpt lat="46.062164" lon="11.091744">
        <ele>676.435278</ele>
        <time>2026-02-05T14:12:03.961Z</time>
      </trkpt>
      <trkpt lat="46.062112" lon="11.091799">
        <ele>675.261350</ele>
        <time>2026-02-05T14:12:15.960Z</time>
      </trkpt>
      <trkpt lat="46.061780" lon="11.091819">
        <ele>669.213666</ele>
        <time>2026-02-05T14:13:18.897Z</time>
      </trkpt>
      <trkpt lat="46.061244" lon="11.091781">
        <ele>666.684763</ele>
        <time>2026-02-05T14:14:45.396Z</time>
      </trkpt>
      <trkpt lat="46.060986" lon="11.092010">
        <ele>666.389924</ele>
        <time>2026-02-05T14:15:28.533Z</time>
      </trkpt>
      <trkpt lat="46.060881" lon="11.092231">
        <ele>666.209081</ele>
        <time>2026-02-05T14:15:52.930Z</time>
      </trkpt>
      <trkpt lat="46.060785" lon="11.092208">
        <ele>666.114387</ele>
        <time>2026-02-05T14:16:03.030Z</time>
      </trkpt>
      <trkpt lat="46.060523" lon="11.092047">
        <ele>665.837241</ele>
        <time>2026-02-05T14:16:35.616Z</time>
      </trkpt>
      <trkpt lat="46.060384" lon="11.092000">
        <ele>665.698316</ele>
        <time>2026-02-05T14:16:54.015Z</time>
      </trkpt>
      <trkpt lat="46.060246" lon="11.091848">
        <ele>665.529307</ele>
        <time>2026-02-05T14:17:18.745Z</time>
      </trkpt>
      <trkpt lat="46.059677" lon="11.090971">
        <ele>668.416817</ele>
        <time>2026-02-05T14:19:43.809Z</time>
      </trkpt>
      <trkpt lat="46.059495" lon="11.090583">
        <ele>669.972290</ele>
        <time>2026-02-05T14:20:27.120Z</time>
      </trkpt>
      <trkpt lat="46.059371" lon="11.090545">
        <ele>670.579069</ele>
        <time>2026-02-05T14:20:42.213Z</time>
      </trkpt>
      <trkpt lat="46.059339" lon="11.090625">
        <ele>670.885758</ele>
        <time>2026-02-05T14:20:49.308Z</time>
      </trkpt>
      <trkpt lat="46.059374" lon="11.090924">
        <ele>671.892860</ele>
        <time>2026-02-05T14:21:10.832Z</time>
      </trkpt>
      <trkpt lat="46.059393" lon="11.091061">
        <ele>672.356878</ele>
        <time>2026-02-05T14:21:21.057Z</time>
      </trkpt>
      <trkpt lat="46.059545" lon="11.092147">
        <ele>668.364615</ele>
        <time>2026-02-05T14:22:53.715Z</time>
      </trkpt>
      <trkpt lat="46.059864" lon="11.092764">
        <ele>661.512844</ele>
        <time>2026-02-05T14:24:09.767Z</time>
      </trkpt>
      <trkpt lat="46.060075" lon="11.093055">
        <ele>657.764905</ele>
        <time>2026-02-05T14:24:49.417Z</time>
      </trkpt>
      <trkpt lat="46.060160" lon="11.093247">
        <ele>655.736833</ele>
        <time>2026-02-05T14:25:09.724Z</time>
      </trkpt>
      <trkpt lat="46.060272" lon="11.093886">
        <ele>650.180960</ele>
        <time>2026-02-05T14:26:05.174Z</time>
      </trkpt>
      <trkpt lat="46.060270" lon="11.093980">
        <ele>649.605057</ele>
        <time>2026-02-05T14:26:12.521Z</time>
      </trkpt>
      <trkpt lat="46.060228" lon="11.094121">
        <ele>648.665414</ele>
        <time>2026-02-05T14:26:24.332Z</time>
      </trkpt>
      <trkpt lat="46.060185" lon="11.094224">
        <ele>647.929312</ele>
        <time>2026-02-05T14:26:33.276Z</time>
      </trkpt>
      <trkpt lat="46.060040" lon="11.094379">
        <ele>646.336068</ele>
        <time>2026-02-05T14:26:51.980Z</time>
      </trkpt>
      <trkpt lat="46.059674" lon="11.094590">
        <ele>642.857218</ele>
        <time>2026-02-05T14:27:35.048Z</time>
      </trkpt>
      <trkpt lat="46.059309" lon="11.094881">
        <ele>639.175977</ele>
        <time>2026-02-05T14:28:23.444Z</time>
      </trkpt>
      <trkpt lat="46.059222" lon="11.095000">
        <ele>638.117415</ele>
        <time>2026-02-05T14:28:38.019Z</time>
      </trkpt>
      <trkpt lat="46.059150" lon="11.095257">
        <ele>636.420153</ele>
        <time>2026-02-05T14:29:01.095Z</time>
      </trkpt>
      <trkpt lat="46.059224" lon="11.095355">
        <ele>635.533220</ele>
        <time>2026-02-05T14:29:13.777Z</time>
      </trkpt>
      <trkpt lat="46.059220" lon="11.095452">
        <ele>634.872384</ele>
        <time>2026-02-05T14:29:21.998Z</time>
      </trkpt>
      <trkpt lat="46.059267" lon="11.095451">
        <ele>633.994576</ele>
        <time>2026-02-05T14:29:28.172Z</time>
      </trkpt>
      <trkpt lat="46.059286" lon="11.095512">
        <ele>633.128116</ele>
        <time>2026-02-05T14:29:34.004Z</time>
      </trkpt>
      <trkpt lat="46.059371" lon="11.095581">
        <ele>631.306253</ele>
        <time>2026-02-05T14:29:46.648Z</time>
      </trkpt>
      <trkpt lat="46.059419" lon="11.095700">
        <ele>629.522573</ele>
        <time>2026-02-05T14:29:58.886Z</time>
      </trkpt>
      <trkpt lat="46.059561" lon="11.096016">
        <ele>624.644000</ele>
        <time>2026-02-05T14:30:35.196Z</time>
      </trkpt>
      <trkpt lat="46.059597" lon="11.096394">
        <ele>619.699734</ele>
        <time>2026-02-05T14:31:15.377Z</time>
      </trkpt>
      <trkpt lat="46.059648" lon="11.096440">
        <ele>618.576161</ele>
        <time>2026-02-05T14:31:24.966Z</time>
      </trkpt>
      <trkpt lat="46.059740" lon="11.096458">
        <ele>616.842323</ele>
        <time>2026-02-05T14:31:40.653Z</time>
      </trkpt>
      <trkpt lat="46.059866" lon="11.096304">
        <ele>613.757009</ele>
        <time>2026-02-05T14:32:07.698Z</time>
      </trkpt>
      <trkpt lat="46.060127" lon="11.096342">
        <ele>608.858091</ele>
        <time>2026-02-05T14:32:47.222Z</time>
      </trkpt>
      <trkpt lat="46.060170" lon="11.096308">
        <ele>607.942150</ele>
        <time>2026-02-05T14:32:54.387Z</time>
      </trkpt>
      <trkpt lat="46.060982" lon="11.096281">
        <ele>595.093692</ele>
        <time>2026-02-05T14:34:47.768Z</time>
      </trkpt>
      <trkpt lat="46.061458" lon="11.096293">
        <ele>588.591628</ele>
        <time>2026-02-05T14:35:49.868Z</time>
      </trkpt>
      <trkpt lat="46.061660" lon="11.096368">
        <ele>585.742685</ele>
        <time>2026-02-05T14:36:16.313Z</time>
      </trkpt>
      <trkpt lat="46.061886" lon="11.096570">
        <ele>582.110607</ele>
        <time>2026-02-05T14:36:48.651Z</time>
      </trkpt>
      <trkpt lat="46.061930" lon="11.096599">
        <ele>581.449806</ele>
        <time>2026-02-05T14:36:54.389Z</time>
      </trkpt>
      <trkpt lat="46.061947" lon="11.096597">
        <ele>581.216852</ele>
        <time>2026-02-05T14:36:56.400Z</time>
      </trkpt>
      <trkpt lat="46.061985" lon="11.096579">
        <ele>580.670545</ele>
        <time>2026-02-05T14:37:01.118Z</time>
      </trkpt>
      <trkpt lat="46.062110" lon="11.096521">
        <ele>578.877029</ele>
        <time>2026-02-05T14:37:16.313Z</time>
      </trkpt>
      <trkpt lat="46.062213" lon="11.096533">
        <ele>577.465696</ele>
        <time>2026-02-05T14:37:28.193Z</time>
      </trkpt>
      <trkpt lat="46.062546" lon="11.096572">
        <ele>575.169356</ele>
        <time>2026-02-05T14:38:06.104Z</time>
      </trkpt>
      <trkpt lat="46.062604" lon="11.096571">
        <ele>574.832920</ele>
        <time>2026-02-05T14:38:12.752Z</time>
      </trkpt>
      <trkpt lat="46.062737" lon="11.096521">
        <ele>574.035678</ele>
        <time>2026-02-05T14:38:28.129Z</time>
      </trkpt>
      <trkpt lat="46.062811" lon="11.096474">
        <ele>573.566630</ele>
        <time>2026-02-05T14:38:36.864Z</time>
      </trkpt>
      <trkpt lat="46.062928" lon="11.096336">
        <ele>572.689707</ele>
        <time>2026-02-05T14:38:53.159Z</time>
      </trkpt>
      <trkpt lat="46.063071" lon="11.096337">
        <ele>571.860267</ele>
        <time>2026-02-05T14:39:08.410Z</time>
      </trkpt>
      <trkpt lat="46.063080" lon="11.096337">
        <ele>571.808066</ele>
        <time>2026-02-05T14:39:09.359Z</time>
      </trkpt>
      <trkpt lat="46.063257" lon="11.096428">
        <ele>570.718060</ele>
        <time>2026-02-05T14:39:29.752Z</time>
      </trkpt>
      <trkpt lat="46.063300" lon="11.096442">
        <ele>570.462366</ele>
        <time>2026-02-05T14:39:34.588Z</time>
      </trkpt>
      <trkpt lat="46.063354" lon="11.096467">
        <ele>570.133391</ele>
        <time>2026-02-05T14:39:40.640Z</time>
      </trkpt>
      <trkpt lat="46.063363" lon="11.096911">
        <ele>568.345729</ele>
        <time>2026-02-05T14:40:14.444Z</time>
      </trkpt>
      <trkpt lat="46.063406" lon="11.097019">
        <ele>567.844603</ele>
        <time>2026-02-05T14:40:24.060Z</time>
      </trkpt>
      <trkpt lat="46.063463" lon="11.097052">
        <ele>567.488313</ele>
        <time>2026-02-05T14:40:30.800Z</time>
      </trkpt>
      <trkpt lat="46.063483" lon="11.097183">
        <ele>566.948487</ele>
        <time>2026-02-05T14:40:41.329Z</time>
      </trkpt>
      <trkpt lat="46.063513" lon="11.097447">
        <ele>565.635212</ele>
        <time>2026-02-05T14:41:02.504Z</time>
      </trkpt>
      <trkpt lat="46.063549" lon="11.097591">
        <ele>564.748353</ele>
        <time>2026-02-05T14:41:14.776Z</time>
      </trkpt>
      <trkpt lat="46.063577" lon="11.097686">
        <ele>564.150310</ele>
        <time>2026-02-05T14:41:23.149Z</time>
      </trkpt>
      <trkpt lat="46.063609" lon="11.097966">
        <ele>562.506097</ele>
        <time>2026-02-05T14:41:46.285Z</time>
      </trkpt>
      <trkpt lat="46.063581" lon="11.097963">
        <ele>562.271637</ele>
        <time>2026-02-05T14:41:49.612Z</time>
      </trkpt>
      <trkpt lat="46.063615" lon="11.098410">
        <ele>559.666151</ele>
        <time>2026-02-05T14:42:25.960Z</time>
      </trkpt>
      <trkpt lat="46.063609" lon="11.098793">
        <ele>557.446440</ele>
        <time>2026-02-05T14:42:56.689Z</time>
      </trkpt>
      <trkpt lat="46.063566" lon="11.098979">
        <ele>556.310489</ele>
        <time>2026-02-05T14:43:12.569Z</time>
      </trkpt>
      <trkpt lat="46.063323" lon="11.099231">
        <ele>553.810579</ele>
        <time>2026-02-05T14:43:47.662Z</time>
      </trkpt>
      <trkpt lat="46.063063" lon="11.099379">
        <ele>551.476217</ele>
        <time>2026-02-05T14:44:20.922Z</time>
      </trkpt>
      <trkpt lat="46.062812" lon="11.099505">
        <ele>547.969168</ele>
        <time>2026-02-05T14:44:52.854Z</time>
      </trkpt>
      <trkpt lat="46.062813" lon="11.099547">
        <ele>547.578728</ele>
        <time>2026-02-05T14:44:56.374Z</time>
      </trkpt>
      <trkpt lat="46.062528" lon="11.099713">
        <ele>543.462789</ele>
        <time>2026-02-05T14:45:34.023Z</time>
      </trkpt>
      <trkpt lat="46.062316" lon="11.099950">
        <ele>539.870270</ele>
        <time>2026-02-05T14:46:07.565Z</time>
      </trkpt>
      <trkpt lat="46.062151" lon="11.100161">
        <ele>536.916623</ele>
        <time>2026-02-05T14:46:36.192Z</time>
      </trkpt>
      <trkpt lat="46.062039" lon="11.100703">
        <ele>531.662431</ele>
        <time>2026-02-05T14:47:40.189Z</time>
      </trkpt>
      <trkpt lat="46.061864" lon="11.101116">
        <ele>527.336539</ele>
        <time>2026-02-05T14:48:23.327Z</time>
      </trkpt>
      <trkpt lat="46.061708" lon="11.101362">
        <ele>527.985977</ele>
        <time>2026-02-05T14:48:50.249Z</time>
      </trkpt>
      <trkpt lat="46.061636" lon="11.101516">
        <ele>528.347853</ele>
        <time>2026-02-05T14:49:04.100Z</time>
      </trkpt>
      <trkpt lat="46.061609" lon="11.101692">
        <ele>528.699117</ele>
        <time>2026-02-05T14:49:17.230Z</time>
      </trkpt>
      <trkpt lat="46.061596" lon="11.101822">
        <ele>528.955073</ele>
        <time>2026-02-05T14:49:26.748Z</time>
      </trkpt>
      <trkpt lat="46.061568" lon="11.101861">
        <ele>529.064435</ele>
        <time>2026-02-05T14:49:30.751Z</time>
      </trkpt>
      <trkpt lat="46.061560" lon="11.101913">
        <ele>529.168232</ele>
        <time>2026-02-05T14:49:34.615Z</time>
      </trkpt>
      <trkpt lat="46.061554" lon="11.101964">
        <ele>529.269037</ele>
        <time>2026-02-05T14:49:38.589Z</time>
      </trkpt>
      <trkpt lat="46.061560" lon="11.101913">
        <ele>529.369842</ele>
        <time>2026-02-05T14:49:42.812Z</time>
      </trkpt>
      <trkpt lat="46.061568" lon="11.101861">
        <ele>529.473639</ele>
        <time>2026-02-05T14:49:46.829Z</time>
      </trkpt>
      <trkpt lat="46.061596" lon="11.101822">
        <ele>529.583001</ele>
        <time>2026-02-05T14:49:50.792Z</time>
      </trkpt>
      <trkpt lat="46.061609" lon="11.101692">
        <ele>529.838957</ele>
        <time>2026-02-05T14:50:00.593Z</time>
      </trkpt>
      <trkpt lat="46.061636" lon="11.101516">
        <ele>530.190221</ele>
        <time>2026-02-05T14:50:14.131Z</time>
      </trkpt>
      <trkpt lat="46.061708" lon="11.101362">
        <ele>530.552097</ele>
        <time>2026-02-05T14:50:28.687Z</time>
      </trkpt>
      <trkpt lat="46.061864" lon="11.101116">
        <ele>531.201535</ele>
        <time>2026-02-05T14:50:58.238Z</time>
      </trkpt>
      <trkpt lat="46.062039" lon="11.100703">
        <ele>532.144568</ele>
        <time>2026-02-05T14:51:52.851Z</time>
      </trkpt>
      <trkpt lat="46.062151" lon="11.100161">
        <ele>536.324284</ele>
        <time>2026-02-05T14:53:20.592Z</time>
      </trkpt>
      <trkpt lat="46.062316" lon="11.099950">
        <ele>539.090647</ele>
        <time>2026-02-05T14:53:57.592Z</time>
      </trkpt>
      <trkpt lat="46.062528" lon="11.099713">
        <ele>542.455371</ele>
        <time>2026-02-05T14:54:37.535Z</time>
      </trkpt>
      <trkpt lat="46.062813" lon="11.099547">
        <ele>546.310326</ele>
        <time>2026-02-05T14:55:20.177Z</time>
      </trkpt>
      <trkpt lat="46.062812" lon="11.099505">
        <ele>546.676009</ele>
        <time>2026-02-05T14:55:24.103Z</time>
      </trkpt>
      <trkpt lat="46.063063" lon="11.099379">
        <ele>550.009207</ele>
        <time>2026-02-05T14:55:59.774Z</time>
      </trkpt>
      <trkpt lat="46.063323" lon="11.099231">
        <ele>553.514902</ele>
        <time>2026-02-05T14:56:36.730Z</time>
      </trkpt>
      <trkpt lat="46.063566" lon="11.098979">
        <ele>555.741721</ele>
        <time>2026-02-05T14:57:15.185Z</time>
      </trkpt>
      <trkpt lat="46.063609" lon="11.098793">
        <ele>556.340915</ele>
        <time>2026-02-05T14:57:32.067Z</time>
      </trkpt>
      <trkpt lat="46.063615" lon="11.098410">
        <ele>557.511773</ele>
        <time>2026-02-05T14:58:04.000Z</time>
      </trkpt>
      <trkpt lat="46.063581" lon="11.097963">
        <ele>558.886121</ele>
        <time>2026-02-05T14:58:40.283Z</time>
      </trkpt>
      <trkpt lat="46.063609" lon="11.097966">
        <ele>559.009795</ele>
        <time>2026-02-05T14:58:43.504Z</time>
      </trkpt>
      <trkpt lat="46.063577" lon="11.097686">
        <ele>559.877088</ele>
        <time>2026-02-05T14:59:05.907Z</time>
      </trkpt>
      <trkpt lat="46.064700" lon="11.097565">
        <ele>562.837354</ele>
        <time>2026-02-05T15:01:05.378Z</time>
      </trkpt>
      <trkpt lat="46.064744" lon="11.097560">
        <ele>562.837354</ele>
        <time>2026-02-05T15:01:09.976Z</time>
      </trkpt>
      <trkpt lat="46.064746" lon="11.097619">
        <ele>562.837354</ele>
        <time>2026-02-05T15:01:14.162Z</time>
      </trkpt>
      <trkpt lat="46.064795" lon="11.097614">
        <ele>562.837354</ele>
        <time>2026-02-05T15:01:19.133Z</time>
      </trkpt>
      <trkpt lat="46.064920" lon="11.097681">
        <ele>562.837354</ele>
        <time>2026-02-05T15:01:32.883Z</time>
      </trkpt>
      <trkpt lat="46.064950" lon="11.097827">
        <ele>562.837354</ele>
        <time>2026-02-05T15:01:43.824Z</time>
      </trkpt>
      <trkpt lat="46.065035" lon="11.098068">
        <ele>562.837354</ele>
        <time>2026-02-05T15:02:03.234Z</time>
      </trkpt>
      <trkpt lat="46.065217" lon="11.098347">
        <ele>562.837354</ele>
        <time>2026-02-05T15:02:30.708Z</time>
      </trkpt>
      <trkpt lat="46.065432" lon="11.098743">
        <ele>562.837354</ele>
        <time>2026-02-05T15:03:06.702Z</time>
      </trkpt>
      <trkpt lat="46.065450" lon="11.098908">
        <ele>562.837354</ele>
        <time>2026-02-05T15:03:18.673Z</time>
      </trkpt>
      <trkpt lat="46.065475" lon="11.099111">
        <ele>562.837354</ele>
        <time>2026-02-05T15:03:33.458Z</time>
      </trkpt>
      <trkpt lat="46.065488" lon="11.099143">
        <ele>562.837354</ele>
        <time>2026-02-05T15:03:36.090Z</time>
      </trkpt>
      <trkpt lat="46.065533" lon="11.099224">
        <ele>562.837354</ele>
        <time>2026-02-05T15:03:43.509Z</time>
      </trkpt>
      <trkpt lat="46.065679" lon="11.099451">
        <ele>562.837354</ele>
        <time>2026-02-05T15:04:05.618Z</time>
      </trkpt>
      <trkpt lat="46.065751" lon="11.099557">
        <ele>562.837354</ele>
        <time>2026-02-05T15:04:16.020Z</time>
      </trkpt>
    </trkseg>
  </trk>
</gpx>